REGION_CODE,CITY,DISTRICT,STORE_NAME,LAT,LONG,TIER,TYPE_OF_STORE,PLANT_TYPE,CLUSTER,GOLD,SILVER,DIAMOND,STATUS
DNB,BA RIA-VUNG TAU,Huyện Châu Đức,"TTKH 303 Hùng Vương, TT. Ngãi Giao, Châu Đức, Bà Rịa - Vũng Tàu",10.353882364375846, 107.0759458239991,Tier 3,NEW CENTER,CH,DNB03,x,x,x,ON
DNB,BA RIA-VUNG TAU,Huyện Đất Đỏ,"TTKH 7 ô 5/12 Đường THĐ, Đất Đỏ",10.48025, 107.27879,Tier 3,LOW COST,CH,DNB03,x,x,,ON
DNB,BA RIA-VUNG TAU,Huyện Long Điền,"TTKH QL 44A, Long Điền",9.12833, 105.44472,Tier 3,NEW CENTER,CH,DNB03,x,x,x,ON
DNB,BA RIA-VUNG TAU,Huyện Xuyên Mộc,"50 Huỳnh Minh Thạnh, TT. Phước Bửu, Xuyên Mộc, Bà Rịa - Vũng Tàu, Vietnam",10.712323, 106.73525,Tier 3,NEW CENTER,CH,DNB03,x,x,x,ON
DNB,BA RIA-VUNG TAU,Thành phố Bà Rịa,PNJ Coop Bà Rịa,10.5, 107.16667,Tier 2,CENTER,CH,DNB03,x,x,,ON
DNB,BA RIA-VUNG TAU,Thành phố Bà Rịa,"TTKH 269A Cách Mạng Tháng Tám,",10.5, 107.16667,Tier 2,NEW CENTER,CH,DNB03,x,x,x,ON
DNB,BA RIA-VUNG TAU,Thành phố Vũng Tàu,Đường Ba Cu - TP. Vũng Tàu/ kh,10.34599, 107.08426,Tier 1,NEW CENTER,CH,DNB03,x,x,x,ON
DNB,BA RIA-VUNG TAU,Thành phố Vũng Tàu,PNJ Coop Vũng Tàu,10.34599, 107.08426,Tier 1,CENTER,CH,DNB03,x,x,,ON
DNB,BA RIA-VUNG TAU,Thành phố Vũng Tàu,"PNJ NEXT 380 Lê Hồng Phong,Vũng Tàu",10.34599, 107.08426,Tier 1,NEXT,CH,DNB03,x,x,x,ON
DNB,BA RIA-VUNG TAU,Thành phố Vũng Tàu,"TTTH 521-523 Ba Mươi Tháng Tư,",10.34599, 107.08426,Tier 1,CENTER,CH,DNB03,x,x,x,ON
DNB,BA RIA-VUNG TAU,Thị xã Phú Mỹ,PNJ Coop Tân Thành,10.57381, 107.10189,Tier 3,CENTER,CH,DNB03,x,x,,ON
DNB,BA RIA-VUNG TAU,Thị xã Phú Mỹ,"TTKH QL51, Mỹ Xuân, Tân Thành, Ba Ria - Vung Tau",13.45, 109.3,Tier 3,NEW CENTER,CH,DNB03,x,x,x,ON
DNB,BINH DUONG,Huyện Bàu Bàng,"TTKH 21-23 đường NC, Bàu Bàng",15.75, 108.36667,Tier 3,NEW CENTER,CH,DNB01,x,x,x,ON
DNB,BINH DUONG,Huyện Phú Giáo,"TTK 608 TT.Phước Vinh, Phú Giáo",13.95, 109.18333,Tier 3,NEW CENTER,CH,DNB05,x,x,x,ON
DNB,BINH DUONG,Thành phố Dĩ An,PNJ Aeon Bình Dương,10.931793, 106.711701,Tier 1,NEW CENTER,CH,DNB01,x,x,x,ON
DNB,BINH DUONG,Thành phố Dĩ An,PNJ BigC Dĩ An,10.889097, 106.776228,Tier 1,NEW CENTER,CH,DNB01,x,x,x,ON
DNB,BINH DUONG,Thành phố Dĩ An,"TTKH 105 Nguyễn Trãi, Dĩ An",10.90682, 106.7694,Tier 1,NEW CENTER,CH,DNB01,x,x,x,ON
DNB,BINH DUONG,Thành phố Dĩ An,"TTKH 230 Nguyễn An Ninh,Dĩ An",10.90682, 106.7694,Tier 1,NEW CENTER,CH,DNB01,x,x,x,ON
DNB,BINH DUONG,Thành phố Thủ Dầu Một,PNJ Coop Bình Dương,11.16667, 106.66667,Tier 1,NEW CENTER,CH,DNB01,x,x,,ON
DNB,BINH DUONG,Thành phố Thủ Dầu Một,PNJ Coop Bình Dương 2,47.28167, 8.45023,Tier 1,CENTER,CH,DNB01,x,x,,ON
DNB,BINH DUONG,Thành phố Thủ Dầu Một,"PNJ NEXT 3-3A Hùng Vương,Thủ D",10.9804, 106.6519,Tier 1,NEXT,CH,DNB01,x,x,x,ON
DNB,BINH DUONG,Thành phố Thủ Dầu Một,"TTKH 190 Yersin,Thủ Dầu Một",10.9804, 106.6519,Tier 1,NEW CENTER,CH,DNB04,x,x,x,ON
DNB,BINH DUONG,Thành phố Thủ Dầu Một,"TTKH 459 Đại lộ Bình Dương,Thủ",10.9804, 106.6519,Tier 1,NEW CENTER,CH,DNB04,x,x,x,ON
DNB,BINH DUONG,Thành phố Thủ Dầu Một,Vincom Thủ Dầu Một,10.984204, 106.666888,Tier 1,CENTER,CH,,,,,OFF
DNB,BINH DUONG,Thành phố Thuận An,PNJ Vincom Dĩ An,10.003258, 105.081058,Tier 2,CENTER,CH,DNB01,,,,OFF
DNB,BINH DUONG,Thành phố Thuận An,"TTKH 1/85 đường 22 tháng 12, Thuận An, Bình Dương",15.5, 108.68333,Tier 1,NEW CENTER,CH,DNB01,x,x,x,ON
DNB,BINH DUONG,Thành phố Thuận An,"TTKH 51 ĐT745,Thuận An",15.5, 108.68333,Tier 1,NEW CENTER,CH,DNB01,x,x,x,ON
DNB,BINH DUONG,Thị xã Bến Cát,"TTKH 460 Quốc lộ 13, Bến Cát",11.15, 106.6,Tier 3,NEW CENTER,CH,DNB04,x,x,x,ON
DNB,BINH DUONG,Thị xã Tân Uyên,TTKH 19DT Đường DT747 Hội Nghĩa,11.099080596042572, 106.77073026420894,Tier 3,NEW CENTER,CH,DNB05,x,x,x,ON
DNB,BINH DUONG,Thị xã Tân Uyên,TTKH 34 DT 746 Tân Uyên,22.07813, 105.05608,Tier 3,CENTER,CH,DNB01,x,x,x,ON
DNB,BINH PHUOC,Thành phố Đồng Xoài,PNJ Coop Đồng Xoài,11.53495, 106.88324,Tier 2,NEW CENTER,CH,DNB05,x,x,,ON
DNB,BINH PHUOC,Thành phố Đồng Xoài,"TTKH 874 Phú Riềng Đỏ,Đồng Xoà",11.53495, 106.88324,Tier 2,NEW CENTER,CH,DNB05,x,x,x,ON
DNB,BINH PHUOC,Thị xã Bình Long,TTKH 114-116-118 NH,11.64711, 106.60586,Tier 3,CENTER,CH,DNB05,x,x,x,ON
DNB,BINH PHUOC,Thị xã Chơn Thành,"TTKH 61 Quốc lộ 13, Chơn Thành, Bình Phước",11.42821, 106.63536,Tier 3,NEW CENTER,CH,DNB05,x,x,x,ON
DNB,BINH PHUOC,Thị xã Phước Long,"TTKH 351 Nguyễn Tất Thành, Phước Long",9.45167, 105.42389,Tier 3,CENTER,CH,DNB05,x,x,x,ON
DNB,DONG NAI,Huyện Long Thành,"TTKH 622K-624 Lê Duẩn,TT.Long Thành,Long Thành",10.76162, 107.02688,Tier 3,NEW CENTER,CH,DNB02,x,x,x,ON
DNB,DONG NAI,Huyện Nhơn Trạch,"TTKH 380 Lý Thái Tổ, Nhơn Trạch",10.758063894821305, 106.9257263364531,Tier 3,NEW CENTER,CH,DNB02,x,x,x,ON
DNB,DONG NAI,Huyện Tân Phú,TTKH 2170 QL20 Tân Phú,11.39867, 107.39976,Tier 3,LOW COST,CH,DNB02,x,x,,ON
DNB,DONG NAI,Huyện Thống Nhất,"TTKH 6/1B Quốc Lộ 20,Thống Nhất",10.97764, 107.15909,Tier 3,NEW CENTER,CH,DNB02,x,x,x,ON
DNB,DONG NAI,Huyện Trảng Bom,"TTKH 56 Đường 30/4, Trảng Bom",10.95358, 107.00589,Tier 3,CENTER,CH,DNB02,x,x,x,ON
DNB,DONG NAI,Thành phố Biên Hòa,CH Bạc 30/4 BHA,10.950438796644326, 106.82182472944858,Tier 1,CENTER,CH,DNB02,,,,OFF
DNB,DONG NAI,Thành phố Biên Hòa,Co.op Extra Biên Hòa,10.94469, 106.82432,Tier 1,CENTER,CH,,,,,OFF
DNB,DONG NAI,Thành phố Biên Hòa,PNJ BigC Đồng Nai,11.0, 107.16667,Tier 1,CENTER,CH,DNB02,x,x,,ON
DNB,DONG NAI,Thành phố Biên Hòa,PNJ Tân Phong (Big C|Go Tân Hiệp),10.0954, 105.25936,Tier 1,NEW CENTER,CH,DNB02,x,x,x,ON
DNB,DONG NAI,Thành phố Biên Hòa,PNJ Vincom Biên Hòa,19.809815, 105.777366,Tier 1,CENTER,CH,DNB02,,,,OFF
DNB,DONG NAI,Thành phố Biên Hòa,PNJ Vincom+ Long Thành,10.74379, 106.732469,Tier 3,CENTER,CH,DNB03,,,,OFF
DNB,DONG NAI,Thành phố Biên Hòa,"TTKH 1393 Phạm Văn Thuận,Biên Hòa",10.94469, 106.82432,Tier 1,NEXT,CH,DNB02,x,x,x,ON
DNB,DONG NAI,Thành phố Biên Hòa,"TTKH 3/2 Đồng Khởi,Đồng Khởi",10.256985, 106.365009,Tier 1,CENTER,CH,DNB02,x,x,x,ON
DNB,DONG NAI,Thành phố Biên Hòa,"TTKH 482 Phạm Văn Thuận,Biên H",10.94469, 106.82432,Tier 1,NEW CENTER,CH,DNB02,x,x,x,ON
DNB,DONG NAI,Thành phố Biên Hòa,"TTKH 684 Quốc lộ 1A,Biên Hòa",10.94469, 106.82432,Tier 1,CENTER,CH,DNB02,x,x,x,ON
DNB,DONG NAI,Thành phố Biên Hòa,"TTKH 97 Ba Mươi Tháng Tư,Biên Hòa",10.94469, 106.82432,Tier 1,NEW CENTER,CH,DNB02,x,x,x,ON
DNB,DONG NAI,Thành phố Long Khánh,"TTKH G58 Hùng Vương,Long Khánh",14.52157, 108.90502,Tier 2,NEW CENTER,CH,DNB02,x,x,x,ON
DNB,TAY NINH,Huyện Gò Dầu,TTKH 405 QL22 Gò Dầu Tây Ninh,11.0885, 106.26346,Tier 3,NEW CENTER,CH,DNB04,x,x,x,ON
DNB,TAY NINH,Huyện Tân Châu,"TTKH 431 Lê Duẩn, Tân Châu",11.553302117874802, 106.16367372297277,Tier 3,NEW CENTER,CH,DNB04,x,x,x,ON
DNB,TAY NINH,Thành phố Tây Ninh,"241 đường 30/4, Tây Ninh",10.024829, 105.774634,Tier 2,NEW CENTER,CH,DNB04,x,x,x,ON
DNB,TAY NINH,Thành phố Tây Ninh,PNJ Coop Tây Ninh,11.31004, 106.09828,Tier 2,CENTER,CH,DNB04,x,x,,ON
DNB,TAY NINH,Thành phố Tây Ninh,PNJ Vincom Tây Ninh,10.024829, 105.774634,Tier 2,CENTER,CH,DNB01,,,,OFF
DNB,TAY NINH,Thành phố Tây Ninh,"TTKH 877 Cách Mạng Tháng Tám,T",11.31004, 106.09828,Tier 2,NEW CENTER,CH,DNB04,x,x,x,ON
DNB,TAY NINH,Thị xã Hòa Thành,"TTKH 85 Hùng Vương,Hòa Thành",11.26706, 106.14486,Tier 3,NEW CENTER,CH,DNB04,x,x,x,ON
DNB,TAY NINH,Thị xã Trảng Bàng,"PNJ Coop Trảng Bàng 5 Quốc Lộ 22 Tổ 16 Khu phố Lộc An Phường Trảng Bàng Thị Xã, Trảng Bàng, Tây Ninh",11.02987, 106.35751,Tier 3,CENTER,CH,DNB04,x,x,,ON
DNB,TAY NINH,Thị xã Trảng Bàng,TTKH 5 Quốc lộ 2 Trảng Bàng,11.02987, 106.35751,Tier 3,CENTER,CH,DNB04,x,x,x,ON
HCM,HO CHI MINH,Huyện Bình Chánh,"TTKH A27/7 Quốc lộ 50,Bình Chánh",10.69541, 106.59128,Tier 2,NEW CENTER,CH,HCM01,x,x,x,ON
HCM,HO CHI MINH,Huyện Bình Chánh,"TTKH D19/22M Hương lộ 80, Bình Chánh",10.69541, 106.59128,Tier 2,NEW CENTER,CH,HCM03,x,x,x,ON
HCM,HO CHI MINH,Huyện Củ Chi,PNJ Centralmall Củ Chi,10.97333, 106.49325,Tier 2,NEW CENTER,CH,HCM09,x,x,,ON
HCM,HO CHI MINH,Huyện Củ Chi,PNJ Coop Củ Chi,10.97333, 106.49325,Tier 2,NEW CENTER,CH,HCM09,x,,,ON
HCM,HO CHI MINH,Huyện Củ Chi,"TTKH 126A Tỉnh Lộ 8,Củ Chi",10.97333, 106.49325,Tier 2,NEW CENTER,CH,HCM09,x,x,x,ON
HCM,HO CHI MINH,Huyện Củ Chi,"TTKH 53 Liêu Bình Hương, Củ Chi",10.97333, 106.49325,Tier 2,CENTER,CH,HCM09,x,x,x,ON
HCM,HO CHI MINH,Huyện Củ Chi,"TTKH 8 TL8, Tân An Hội, Củ Chi, Thành phố Hồ Chí Minh",10.973616, 106.4958421,Tier 2,NEW CENTER,CH,HCM09,x,x,x,ON
HCM,HO CHI MINH,Huyện Hóc Môn,"TTKH 151/3 Nguyễn Ảnh Thủ,Hóc",10.8891, 106.59533,Tier 2,NEW CENTER,CH,HCM09,x,x,x,ON
HCM,HO CHI MINH,Huyện Hóc Môn,"TTKH 3/27 Quang Trung,Hóc Môn",10.8891, 106.59533,Tier 2,NEW CENTER,CH,HCM09,x,x,x,ON
HCM,HO CHI MINH,Huyện Hóc Môn,"TTKH 57/9 ấp Tiền Lân, Bà Điểm, Hóc Môn, Ho Chi Minh City",10.83774, 106.59956,Tier 2,NEW CENTER,CH,HCM09,x,x,x,ON
HCM,HO CHI MINH,Huyện Nhà Bè,"TTKH 1871 Huỳnh Tấn Phát,Nhà Bè",10.68333, 106.76667,Tier 2,CENTER,CH,HCM08,x,x,x,ON
HCM,HO CHI MINH,Quận 1,"CH Bạc 21 Trần Quang Khải,Q1",10.792636348711747, 106.69569941871815,Tier 1,SILVER,CH,HCM08,,x,,ON
HCM,HO CHI MINH,Quận 1,PNJ  Vincom Đồng Khởi,10.77793, 106.702101,Tier 1,NEW CENTER,CH,HCM02,x,,,ON
HCM,HO CHI MINH,Quận 1,PNJ Bạc Takashimaya,10.773314504656668, 106.7010778628964,Tier 1,CENTER,CH,HCM09,,,,OFF
HCM,HO CHI MINH,Quận 1,PNJ Coop Cống Quỳnh,10.767681328335588, 106.68701264331082,Tier 1,CENTER,CH,HCM07,,,,OFF
HCM,HO CHI MINH,Quận 1,PNJ DiamondPlaza,10.781218857525376, 106.69923498378961,Tier 1,NEW CENTER,CH,HCM02,x,,,ON
HCM,HO CHI MINH,Quận 1,"PNJ NEXT 196 Hai Bà Trưng,Q1",10.786719235464675, 106.69434031686806,Tier 1,NEXT,CH,HCM05,x,,x,ON
HCM,HO CHI MINH,Quận 1,PNJ Nowzone,10.7639531, 106.6827131,Tier 1,CENTER,CH,HCM01,x,x,,ON
HCM,HO CHI MINH,Quận 1,PNJ Parkson Lê Thánh Tôn,10.777274, 106.702198,Tier 1,NEW CENTER,CH,HCM02,,,,OFF
HCM,HO CHI MINH,Quận 1,PNJ SaigonCentre,10.773519763463463, 106.70138808008932,Tier 1,NEW CENTER,CH,HCM02,x,,x,ON
HCM,HO CHI MINH,Quận 1,"PNJWatch 148C,Trần Quang Khải, Quận 1",10.78069, 106.69944,Tier 1,PNJWatch,CH,HCMWatch,,,,OFF
HCM,HO CHI MINH,Quận 1,Style Takashimaya,10.773314504656668, 106.7010778628964,Tier 1,STYLE,CH,HCM08,,,,ON
HCM,HO CHI MINH,Quận 1,"TTKH 172-174 Lê Thánh Tôn,Q1",10.773179, 106.697322,Tier 1,NEW CENTER,CH,HCM03,x,x,x,ON
HCM,HO CHI MINH,Quận 1,"TTKH 292 Hai Bà Trưng,Q1",10.027208, 105.786326,Tier 1,NEW CENTER,CH,HCM08,x,x,x,ON
HCM,HO CHI MINH,Quận 10,BigC Miền Đông,10.778255, 106.665465,Tier 1,CENTER,CH,HCM06,,,,OFF
HCM,HO CHI MINH,Quận 10,"CH Bạc 477 Nguyễn Tri Phương,Q 10",10.765619829599876, 106.66796050522497,Tier 1,SILVER,CH,HCM08,,x,,ON
HCM,HO CHI MINH,Quận 10,PNJ Bạc Coop Lý Thường Kiệt,10.760241687694117, 106.66147006984657,Tier 1,SILVER,CH,HCM09,,,,OFF
HCM,HO CHI MINH,Quận 10,PNJ CoopExtra Sư Vạn Hạnh,10.86785, 106.613,Tier 1,CENTER,CH,HCM07,x,x,,ON
HCM,HO CHI MINH,Quận 10,PNJ Vạn Hạnh Mall,10.7705966, 106.6696352,Tier 1,NEW CENTER,CH,HCM07,x,,x,ON
HCM,HO CHI MINH,Quận 10,"Style Vạn Hạnh Mall, Quận 10",10.7705966, 106.6696352,Tier 1,STYLE,CH,HCM08,,,,ON
HCM,HO CHI MINH,Quận 10,"TTKH 145 Thành Thái, Quận 10, Tp.Hồ Chí Minh",10.76823, 106.66632,Tier 1,NEW CENTER,CH,HCM02,x,x,x,ON
HCM,HO CHI MINH,Quận 10,"TTKH 294A Ba Tháng Hai,Q10",10.770688086818039, 106.67250080892507,Tier 1,NEW CENTER,CH,HCM03,x,x,x,ON
HCM,HO CHI MINH,Quận 11,"CH BẠC 140 Ông Ích Khiêm,Q11",10.766587769051018, 106.64362463645324,Tier 1,SILVER,CH,HCM09,,,,OFF
HCM,HO CHI MINH,Quận 11,PNJ Bạc Coop Phú Thọ,21.33333, 105.13333,Tier 1,CENTER,CH,HCM09,,,,OFF
HCM,HO CHI MINH,Quận 11,"TTKH 71 Ông Ích Khiêm,Q11",10.766489, 106.643725,Tier 1,NEW CENTER,CH,HCM06,x,,x,ON
HCM,HO CHI MINH,Quận 12,PNJ Bạc Coop Nguyễn Ảnh Thủ,10.85745490102166, 106.60983421489266,Tier 1,SILVER,CH,HCM08,,,,OFF
HCM,HO CHI MINH,Quận 12,"TTKH 1 Phan Văn Hớn,Q12",10.926902305111739, 106.79514560763424,Tier 1,NEW CENTER,CH,HCM09,x,x,x,ON
HCM,HO CHI MINH,Quận 12,"TTKH 23-23A Nguyễn Ảnh Thủ,Q12",10.876374311555125, 106.6479734057691,Tier 1,NEW CENTER,CH,HCM09,x,x,x,ON
HCM,HO CHI MINH,Quận 12,"TTKH 627 Nguyễn Ảnh Thủ,Q12",10.860299, 106.61016,Tier 1,NEW CENTER,CH,HCM06,x,x,x,ON
HCM,HO CHI MINH,Quận 2,PNJ Estella,42.67182, -2.03226,Tier 1,CENTER,CH,HCM04,x,,,ON
HCM,HO CHI MINH,Quận 2,PNJ Thiso mall,10.77220194848239, 106.72218280522505,Tier 1,NEW CENTER,CH,HCM04,x,x,,ON
HCM,HO CHI MINH,Quận 2,PNJ Vincom Thảo Điền,10.802282, 106.740965,Tier 1,NEW CENTER,CH,HCM04,x,x,,ON
HCM,HO CHI MINH,Quận 2,"TTKH 268 Nguyễn Duy Trinh,Q2",10.788066009145103, 106.76679375865409,Tier 1,NEW CENTER,CH,HCM04,x,x,x,ON
HCM,HO CHI MINH,Quận 3,"CH Bạc 305 Nguyễn Đình Chiểu,Q 3",10.772865625428176, 106.68528022056789,Tier 1,SILVER,CH,HCM08,,x,,ON
HCM,HO CHI MINH,Quận 3,Co.op Nguyễn Đình Chiểu,10.770336, 106.6824,Tier 1,CENTER,CH,HCM06,,,,OFF
HCM,HO CHI MINH,Quận 3,Parkson Cantavil,10.8014347, 106.747055,Tier 1,CENTER,CH,HCM02,,,,OFF
HCM,HO CHI MINH,Quận 3,"PNJWatch 493,Nguyễn Đình Chiểu, Quận 3",10.770336, 106.6824,Tier 1,PNJWatch,CH,HCMWatch,,,,OFF
HCM,HO CHI MINH,Quận 3,"TTKH 132 Cách Mạng Tháng Tám,Q",10.778745659433325, 106.68104396289654,Tier 1,NEW CENTER,CH,HCM07,,,,OFF
HCM,HO CHI MINH,Quận 3,TTKH 664/1-666 Nguyễn Đình Chi,10.770336, 106.6824,Tier 1,NEW CENTER,CH,HCM07,x,,x,ON
HCM,HO CHI MINH,Quận 4,"TTKH 293-295 Hoàng Diệu, Quận 4",16.060316, 108.214332,Tier 1,NEW CENTER,CH,HCM08,x,x,x,ON
HCM,HO CHI MINH,Quận 5,PNJ Hùng Vương Plaza,43.14322, -2.96204,Tier 1,NEW CENTER,CH,HCM03,x,x,,ON
HCM,HO CHI MINH,Quận 5,PNJ Parkson Hùng Vương,10.755784, 106.663199,Tier 1,CENTER,CH,HCM08,,,,OFF
HCM,HO CHI MINH,Quận 5,"TTKH 5-7 An Dương Vương,Q5",53.96396, -1.09142,Tier 1,NEW CENTER,CH,HCM08,x,x,x,ON
HCM,HO CHI MINH,Quận 5,"TTKH 86-88 Nguyễn Trãi,Q5",53.96396, -1.09142,Tier 1,NEW CENTER,CH,HCM07,x,x,x,ON
HCM,HO CHI MINH,Quận 6,"909 Đ. Hậu Giang, Phường 11, Quận 6, Thành phố Hồ Chí Minh",10.81667, 106.68333,Tier 1,NEW CENTER,CH,HCM06,x,x,x,ON
HCM,HO CHI MINH,Quận 6,"TTKH 255A-255B Hậu Giang,Q6",10.749764576123184, 106.64373560522473,Tier 1,NEW CENTER,CH,HCM05,x,x,x,ON
HCM,HO CHI MINH,Quận 6,"TTKH 56B-56C Bà Hom,Q6",10.755018958479695, 106.63226745495344,Tier 1,NEW CENTER,CH,HCM01,x,x,x,ON
HCM,HO CHI MINH,Quận 6,"TTKH 887 Hậu Giang,Q6",10.749522, 106.641189,Tier 1,NEW CENTER,CH,HCM05,x,x,x,ON
HCM,HO CHI MINH,Quận 7,PNJ Coop Huỳnh Tấn Phát,10.70727222006788, 106.7383273935812,Tier 1,CENTER,CH,HCM08,x,x,,ON
HCM,HO CHI MINH,Quận 7,"PNJ CresentMall,Q7",54.59196, -5.70156,Tier 1,NEW CENTER,CH,HCM08,x,x,,ON
HCM,HO CHI MINH,Quận 7,PNJ Lottemart Q7,54.59196, -5.70156,Tier 1,NEW CENTER,CH,HCM08,x,x,,ON
HCM,HO CHI MINH,Quận 7,PNJ SC VivoCity,10.729528, 106.702985,Tier 1,NEW CENTER,CH,HCM08,x,x,,ON
HCM,HO CHI MINH,Quận 7,"Style Cresent, Quận 7",54.59196, -5.70156,Tier 1,STYLE,CH,HCM08,,,,OFF
HCM,HO CHI MINH,Quận 7,"TTKH 462 Nguyễn Thị Thập,Q7",54.59196, -5.70156,Tier 1,NEW CENTER,CH,HCM08,x,x,x,ON
HCM,HO CHI MINH,Quận 7,"TTKH 473 Huỳnh Tấn Phát,Q7",54.59196, -5.70156,Tier 1,CENTER,CH,HCM08,x,x,x,ON
HCM,HO CHI MINH,Quận 7,"TTKH 5 Tân Mỹ,Q7",54.59196, -5.70156,Tier 1,NEW CENTER,CH,HCM08,x,,x,ON
HCM,HO CHI MINH,Quận 7,Vincom Nam Long,10.74379, 106.732469,Tier 1,CENTER,CH,HCM02,,,,OFF
HCM,HO CHI MINH,Quận 8,PNJ Bạc Coop Tuy Lý Vương,10.7443330229189, 106.65462958117398,Tier 2,CENTER,CH,HCM09,,,,OFF
HCM,HO CHI MINH,Quận 8,"TTKH 139-141 Dương Bá Trạc,Q8",10.747943261274363, 106.68927075919603,Tier 1,CENTER,CH,HCM01,x,x,x,ON
HCM,HO CHI MINH,Quận 8,"TTKH 241-243 Phạm Hùng,Q8",10.739856, 106.669276,Tier 1,NEW CENTER,CH,HCM01,x,x,x,ON
HCM,HO CHI MINH,Quận 8,"TTKH 406-408 Tùng Thiện Vương,Q8",10.744837, 106.656668,Tier 1,CENTER,CH,HCM01,x,x,x,ON
HCM,HO CHI MINH,Quận 9,PNJ Coop Xa Lộ Hà Nội,21.0245, 105.84117,Tier 1,NEW CENTER,CH,HCM04,x,x,,ON
HCM,HO CHI MINH,Quận 9,PNJ Vincom Lê Văn Việt,10.845672, 106.779129,Tier 1,NEW CENTER,CH,HCM04,x,x,,ON
HCM,HO CHI MINH,Quận 9,"TTKH 216 Đỗ Xuân Hợp,Q9",54.83333, -6.25,Tier 1,NEW CENTER,CH,HCM04,x,x,x,ON
HCM,HO CHI MINH,Quận 9,"TTKH 281 Lê Văn Việt, Quận 9",54.83333, -6.25,Tier 1,NEW CENTER,CH,HCM04,x,x,x,ON
HCM,HO CHI MINH,Quận Bình Tân,Co.op Bình Tân,10.7430566, 106.6127132,Tier 2,CENTER,CH,HCM09,,,,OFF
HCM,HO CHI MINH,Quận Bình Tân,PNJ Aeon Bình Tân,10.7430566, 106.6127132,Tier 1,NEW CENTER,CH,HCM01,x,,x,ON
HCM,HO CHI MINH,Quận Bình Tân,PNJ BigC An Lạc,20.83237, 106.00952,Tier 1,NEW CENTER,CH,HCM05,x,x,,ON
HCM,HO CHI MINH,Quận Bình Tân,"TTKH 1228B-1228C Tỉnh Lộ 10, Bình Tân",10.85778, 106.74111,Tier 1,NEW CENTER,CH,HCM08,,,,OFF
HCM,HO CHI MINH,Quận Bình Tân,"TTKH 226 Lê Văn Quới,Bình Tân",10.85778, 106.74111,Tier 1,NEW CENTER,CH,HCM03,x,x,x,ON
HCM,HO CHI MINH,Quận Bình Tân,"TTKH 319-321 Đường Số 7, Bình Tân",10.85778, 106.74111,Tier 1,NEW CENTER,CH,HCM01,x,x,x,ON
HCM,HO CHI MINH,Quận Bình Tân,"TTKH 449 - 451 Hồ Học Lãm, Bình Tân",10.85778, 106.74111,Tier 1,NEW CENTER,CH,HCM01,x,x,x,ON
HCM,HO CHI MINH,Quận Bình Tân,"TTKH 745 Lê Trọng Tấn,Bình Tân",10.85778, 106.74111,Tier 1,NEW CENTER,CH,HCM03,x,x,x,ON
HCM,HO CHI MINH,Quận Bình Thạnh,"CH Bạc 131 Hoàng Hoa Thám,Bình",13.582, 109.20425,Tier 1,CENTER,CH,HCM09,,,,OFF
HCM,HO CHI MINH,Quận Bình Thạnh,"CH Bạc 201 Xô Viết Nghệ Tĩnh,B",13.582, 109.20425,Tier 1,CENTER,CH,HCM09,,,,OFF
HCM,HO CHI MINH,Quận Bình Thạnh,"CH Bạc 76 Nơ Trang Long,Bình Thạnh",13.582, 109.20425,Tier 1,SILVER,CH,HCM08,,x,,ON
HCM,HO CHI MINH,Quận Bình Thạnh,CH Bạc Xô Viết Nghệ Tĩnh BTH,10.800524598990275, 106.71115331250314,Tier 1,CENTER,CH,HCM09,,,,OFF
HCM,HO CHI MINH,Quận Bình Thạnh,Co.op Chu Văn An,18.68131, 105.67141,Tier 1,CENTER,CH,HCM09,,,,OFF
HCM,HO CHI MINH,Quận Bình Thạnh,PNJ PearlPlaza,10.800040132560145, 106.71900337823975,Tier 1,CENTER,CH,HCM03,,,,OFF
HCM,HO CHI MINH,Quận Bình Thạnh,PNJ Vincom Landmark 81,34.6112, -92.3196,Tier 1,NEW CENTER,CH,HCM02,x,x,,ON
HCM,HO CHI MINH,Quận Bình Thạnh,"TTKH 101-103 Nguyễn Gia Trí,Bì",13.582, 109.20425,Tier 1,NEW CENTER,CH,HCM07,x,x,x,ON
HCM,HO CHI MINH,Quận Bình Thạnh,TTKH 127N-127P Đinh Tiên Hoàng,27.5, 90.5,Tier 1,NEW CENTER,CH,HCM02,x,x,x,ON
HCM,HO CHI MINH,Quận Bình Thạnh,"TTKH 317A Lê Quang Định,Bình Thạnh",13.582, 109.20425,Tier 1,NEW CENTER,CH,HCM02,x,x,x,ON
HCM,HO CHI MINH,Quận Bình Thạnh,"TTKH 358 Bạch Đằng,Bình Thạnh",10.803304, 106.704259,Tier 1,NEW CENTER,CH,HCM07,x,,x,ON
HCM,HO CHI MINH,Quận Bình Thạnh,"TTKH 60 Xô Viết Nghệ Tĩnh,Bình",10.800581132293908, 106.71173275495418,Tier 1,NEW CENTER,CH,HCM07,x,x,x,ON
HCM,HO CHI MINH,Quận Bình Thạnh,Vincom Nguyễn Xí (TTTM Saigonres BTH),41.05554, -1.55954,Tier 1,CENTER,CH,HCM07,,,,OFF
HCM,HO CHI MINH,Quận Gò Vấp,BigC Gò Vấp,10.826424, 106.681731,Tier 1,CENTER,CH,HCM05,,,,OFF
HCM,HO CHI MINH,Quận Gò Vấp,Co.op Phan Văn Trị,10.82996920656889, 106.68263151262607,Tier 1,CENTER,CH,HCM09,,,,OFF
HCM,HO CHI MINH,Quận Gò Vấp,PNJ Bạc Coop Quang Trung,20.7, 105.36667,Tier 1,CENTER,CH,HCM05,,,,OFF
HCM,HO CHI MINH,Quận Gò Vấp,PNJ Lottemart Gò Vấp,10.81667, 106.68333,Tier 1,NEW CENTER,CH,HCM03,x,x,,ON
HCM,HO CHI MINH,Quận Gò Vấp,"PNJ NEXT 362 Nguyễn Văn Nghi,G",10.81667, 106.68333,Tier 1,NEXT,CH,HCM07,x,x,x,ON
HCM,HO CHI MINH,Quận Gò Vấp,PNJ Vincom Gò Vấp,10.826979, 106.689286,Tier 1,NEW CENTER,CH,HCM03,x,,,ON
HCM,HO CHI MINH,Quận Gò Vấp,PNJ Vincom Quang Trung,10.829528, 106.672547,Tier 1,NEW CENTER,CH,HCM03,,,,OFF
HCM,HO CHI MINH,Quận Gò Vấp,"PNJWatch 147,Quang Trung, Quận Gò Vấp",20.7, 105.36667,Tier 1,PNJWatch,CH,HCMWatch,,,,OFF
HCM,HO CHI MINH,Quận Gò Vấp,"TTKH 114-116 Nguyễn Oanh,Gò Vấ",10.81667, 106.68333,Tier 1,CENTER,CH,HCM06,x,x,x,ON
HCM,HO CHI MINH,Quận Gò Vấp,"TTKH 193-195, Lê Văn Thọ, Gò Vấp",10.81667, 106.68333,Tier 1,NEW CENTER,CH,HCM09,x,x,x,ON
HCM,HO CHI MINH,Quận Gò Vấp,"TTKH 375 Nguyễn Oanh,Gò Vấp",10.81667, 106.68333,Tier 1,NEW CENTER,CH,HCM06,x,x,x,ON
HCM,HO CHI MINH,Quận Gò Vấp,"TTKH 403 Thống Nhất,Gò Vấp",10.81667, 106.68333,Tier 1,CENTER,CH,HCM03,x,x,x,ON
HCM,HO CHI MINH,Quận Gò Vấp,"TTKH 411-413 Quang Trung,Gò Vấ",10.81667, 106.68333,Tier 1,NEW CENTER,CH,HCM06,x,x,x,ON
HCM,HO CHI MINH,Quận Gò Vấp,"TTKH 632-632A Quang Trung,Gò V",10.81667, 106.68333,Tier 1,NEW CENTER,CH,HCM09,x,x,x,ON
HCM,HO CHI MINH,Quận Gò Vấp,"TTKH 863-865 Quang Trung,Gò Vấp",10.843872, 106.640423,Tier 1,NEW CENTER,CH,HCM06,x,x,x,ON
HCM,HO CHI MINH,Quận Phú Nhuận,"CH Bạc 338 Phan Đình Phùng,Phú",15.8, 108.11667,Tier 1,SILVER,CH,HCM08,,x,,ON
HCM,HO CHI MINH,Quận Phú Nhuận,PNJ Coop Nguyễn Kiệm,10.808799005336219, 106.67868162267654,Tier 1,CENTER,CH,HCM02,,,,OFF
HCM,HO CHI MINH,Quận Phú Nhuận,PNJ Coop Rạch Miễu,10.33333, 105.91667,Tier 1,CENTER,CH,HCM02,,,,OFF
HCM,HO CHI MINH,Quận Phú Nhuận,"TTKH 159A Phan Đăng Lưu,Phú Nh",15.8, 108.11667,Tier 1,NEW CENTER,CH,HCM07,x,x,x,ON
HCM,HO CHI MINH,Quận Phú Nhuận,"TTKH 52A-52B Nguyễn Văn Trỗi,P",15.8, 108.11667,Tier 1,NEW CENTER,CH,HCM05,x,x,x,ON
HCM,HO CHI MINH,Quận Tân Bình,"CH Bạc 459 Trường Chinh,Tân Bình",10.8025, 106.66,Tier 1,SILVER,CH,HCM08,,x,,ON
HCM,HO CHI MINH,Quận Tân Bình,CH Bạc CMT8 TBH,10.790077515424588, 106.65656626179761,Tier 1,CENTER,CH,HCM09,,,,OFF
HCM,HO CHI MINH,Quận Tân Bình,Parkson C&T,10.813093, 106.665523,Tier 1,CENTER,CH,HCM09,,,,OFF
HCM,HO CHI MINH,Quận Tân Bình,PNJ Tân Sơn Nhất Quốc Nội,10.813667, 106.6624,Tier 1,CENTER,CH,HCM02,,,,OFF
HCM,HO CHI MINH,Quận Tân Bình,PNJ Vincom Cộng Hòa,21.110466, 106.389506,Tier 1,CENTER,CH,HCM05,,,,OFF
HCM,HO CHI MINH,Quận Tân Bình,Tân Sơn Nhất Quốc Tế,10.816519, 106.66295,Tier 1,CENTER,CH,HCM02,,,,OFF
HCM,HO CHI MINH,Quận Tân Bình,"TTKH 142 Âu Cơ,Tân Bình",10.8025, 106.66,Tier 1,NEW CENTER,CH,HCM02,x,x,x,ON
HCM,HO CHI MINH,Quận Tân Bình,"TTKH 230B Lê Văn Sỹ,Tân Bình",10.8025, 106.66,Tier 1,NEW CENTER,CH,HCM02,x,x,x,ON
HCM,HO CHI MINH,Quận Tân Bình,"TTKH 298-300 Hoàng Văn Thụ,Tân Bình",10.8025, 106.66,Tier 1,NEW CENTER,CH,HCM06,x,x,x,ON
HCM,HO CHI MINH,Quận Tân Bình,"TTKH 304 Trường Chinh,Tân Bình",10.797955, 106.644237,Tier 1,NEW CENTER,CH,HCM02,x,x,x,ON
HCM,HO CHI MINH,Quận Tân Bình,"TTKH 337 Cộng Hòa,Tân Bình",10.800503, 106.658286,Tier 1,NEW CENTER,CH,HCM02,x,x,x,ON
HCM,HO CHI MINH,Quận Tân Bình,"TTKH 508-510 Lý Thường Kiệt,Tân BÌnh",10.8025, 106.66,Tier 1,NEW CENTER,CH,HCM06,x,x,x,ON
HCM,HO CHI MINH,Quận Tân Bình,TTKH CMT8 TBH,10.790506255163963, 106.65346486674258,Tier 1,CENTER,CH,HCM01,,,,OFF
HCM,HO CHI MINH,Quận Tân Phú,BigC Pandora,10.806468, 106.634363,Tier 2,CENTER,CH,HCM02,,,,OFF
HCM,HO CHI MINH,Quận Tân Phú,BigC Tân Thành,10.813093, 106.665523,Tier 2,CENTER,CH,HCM02,,,,OFF
HCM,HO CHI MINH,Quận Tân Phú,PNJ Aeon Tân Phú,10.8020785, 106.6184427,Tier 1,NEW CENTER,CH,HCM06,x,,,ON
HCM,HO CHI MINH,Quận Tân Phú,"PNJ COOP Thắng Lợi, Tân Phú",11.39867, 107.39976,Tier 2,CENTER,CH,HCM07,,,,OFF
HCM,HO CHI MINH,Quận Tân Phú,Style Aeon Tân Phú,10.8020785, 106.6184427,Tier 1,STYLE,CH,HCM06,,,,ON
HCM,HO CHI MINH,Quận Tân Phú,"TTKH 139-141 Lê Trọng Tấn,Tân Phú",11.39867, 107.39976,Tier 1,NEW CENTER,CH,HCM03,x,x,x,ON
HCM,HO CHI MINH,Quận Tân Phú,"TTKH 182B-182C Hòa Bình, Tân Phú",11.39867, 107.39976,Tier 1,NEW CENTER,CH,HCM05,x,x,x,ON
HCM,HO CHI MINH,Quận Tân Phú,"TTKH 202-208 Tân Hương,Tân Phú",11.39867, 107.39976,Tier 1,NEW CENTER,CH,HCM06,x,x,x,ON
HCM,HO CHI MINH,Quận Tân Phú,"TTKH 229A-231 Tân Sơn Nhì,Tân Phú",11.39867, 107.39976,Tier 1,NEW CENTER,CH,HCM05,x,x,x,ON
HCM,HO CHI MINH,Quận Tân Phú,"TTKH 237 Nguyễn Sơn,Tân Phú",11.39867, 107.39976,Tier 1,NEW CENTER,CH,HCM02,x,x,x,ON
HCM,HO CHI MINH,Quận Tân Phú,"TTKH 699-701 Lũy Bán Bích, Tân Phú",11.39867, 107.39976,Tier 1,NEW CENTER,CH,HCM02,x,,x,ON
HCM,HO CHI MINH,Thành phố Thủ Đức,"955 Kha Vạn Cân, Thủ Đức",10.84863, 106.77209,Tier 1,NEW CENTER,CH,HCM04,x,x,x,ON
HCM,HO CHI MINH,Thành phố Thủ Đức,Đường Tô Ngọc Vân (khu vực chợ Tam Hà),41.05554, -1.55954,Tier 2,CENTER,CH,,,,,OFF
HCM,HO CHI MINH,Thành phố Thủ Đức,PNJ CoopExtra Thủ Đức,10.84863, 106.77209,Tier 1,NEW CENTER,CH,HCM04,x,x,,ON
HCM,HO CHI MINH,Thành phố Thủ Đức,PNJ SenseCity Phạm Văn Đồng,18.25, 105.65,Tier 1,NEW CENTER,CH,HCM04,x,x,,ON
HCM,HO CHI MINH,Thành phố Thủ Đức,PNJ Vincom Thủ Đức,10.850566, 106.765308,Tier 1,NEW CENTER,CH,HCM04,x,x,,ON
HCM,HO CHI MINH,Thành phố Thủ Đức,"TTKH 139-141 Võ Văn Ngân,Thủ Đ",10.84863, 106.77209,Tier 1,NEW CENTER,CH,HCM04,x,x,x,ON
HCM,HO CHI MINH,Thành phố Thủ Đức,"TTKH 287A Tô Ngọc Vân, Thủ Đức",10.84863, 106.77209,Tier 1,CENTER,CH,HCM04,x,x,x,ON
HCM,HO CHI MINH,Thành phố Thủ Đức,"TTKH 413 Nguyễn Văn Tăng, Thủ Đức",10.84863, 106.77209,Tier 1,NEW CENTER,CH,HCM04,x,x,x,ON
HQ,HO CHI MINH,Quận Phú Nhuận,Hội sở - Headquarters PNJ,10.801090109938189, 106.68215963733616,,,HQ,,,,,ON
MBC,BAC GIANG,Thành phố Bắc Giang,"TTKH 68 Lê Lợi,Bắc Giang",21.27307, 106.1946,Tier 2,NEW CENTER,CH,MBC04,x,x,x,ON
MBC,BAC NINH,Huyện Quế Võ,"TTKH PNJ 08 Trần Hưng Đạo, Quế Võ, Bắc Ninh",21.154384738918374, 106.14671353616023,Tier 3,NEW CENTER,CH,MBC02,x,x,,ON
MBC,BAC NINH,Thành phố Bắc Ninh,PNJ Vincom Lý Thái Tổ Bắc Ninh,21.18608, 106.07631,Tier 2,NEW CENTER,CH,MBC02,x,x,,ON
MBC,BAC NINH,Thành phố Bắc Ninh,"TTKH 448-450 Ngô Gia Tự,Bắc Ni",21.18608, 106.07631,Tier 2,NEW CENTER,CH,MBC02,x,x,x,ON
MBC,BAC NINH,Thị xã Từ Sơn,"TTKH 204 Trần Phú Từ Sơn,Bắc N",21.119491, 105.96231,Tier 3,NEW CENTER,CH,MBC02,x,x,,ON
MBC,HA NAM,Thành phố Phủ Lý,"TTKH 71 Biên Hòa,Hà Nam",20.53333, 105.96667,Tier 2,NEW CENTER,CH,MBC03,x,x,x,ON
MBC,HA NAM,Thị Xã Duy Tiên,"TTKH 67 Nguyễn Hữu Tiến, P. Đồng Văn, Thị Xã Duy Tiên",20.62803, 105.96193,Tier 3,CENTER,CH,MBC03,x,x,,ON
MBC,HA NOI,Huyện Đông Anh,"TTKH 16-18 Cao Lỗ, Đông Anh",21.13962, 105.84926,Tier 2,NEW CENTER,CH,MBC01,x,x,,ON
MBC,HA NOI,Huyện Hoài Đức,"Số 19 phố Thú Y, Trạm Trôi, Hoài Đức, Hà Nội",21.02014, 105.7017,Tier 3,NEW CENTER,CH,MBC02,x,x,,ON
MBC,HA NOI,Huyện Thanh Trì,"TTKH 409 Ngọc Hồi, Thanh Trì",20.92925, 105.83584,Tier 2,CENTER,CH,MBC02,x,x,,ON
MBC,HA NOI,Quận Ba Đình,"CH Bạc 30 Đội Cấn,Ba Đình",21.03587, 105.82163,Tier 1,CENTER,CH,,,,,OFF
MBC,HA NOI,Quận Ba Đình,CH Bạc Kim Mã HNI,21.032509919540875, 105.8278793496491,Tier 1,CENTER,CH,,,,,OFF
MBC,HA NOI,Quận Ba Đình,"TTKH 30 Quán Thanh,Ba Đình",21.0404167, 105.8462404,Tier 1,NEW CENTER,CH,MBC04,x,x,,ON
MBC,HA NOI,Quận Ba Đình,"TTKH 94-96 Kim Mã,Ba Đình",21.0322746, 105.8274285,Tier 1,CENTER,CH,MBC04,x,x,,ON
MBC,HA NOI,Quận Bắc Từ Liêm,"TTKH 111-113 Cầu Diễn, Phường Phúc Diễn, Quận Bắc Từ Liêm",21.04547354428288, 105.75059519252056,Tier 1,NEW CENTER,CH,MBC02,x,x,,ON
MBC,HA NOI,Quận Bắc Từ Liêm,"TTKH D8-D9/107 Xuân La, Bắc Từ Liêm",21.067478002949, 105.80414507848596,Tier 1,NEW CENTER,CH,MBC01,x,x,x,ON
MBC,HA NOI,Quận Bắc Từ Liêm,Vincom Bắc Từ Liêm,21.053029, 105.780096,Tier 1,CENTER,CH,,,,,OFF
MBC,HA NOI,Quận Cầu Giấy,"CH Bạc 256 Cầu Giấy,Cầu Giấy",21.03228, 105.80073,Tier 1,SILVER,CH,MBC06,,x,,ON
MBC,HA NOI,Quận Cầu Giấy,"PNJ BigC Thăng Long,Cầu Giấy",21.007459, 105.793619,Tier 1,NEW CENTER,CH,MBC06,x,x,,ON
MBC,HA NOI,Quận Cầu Giấy,"PNJ NEXT 110 Cầu Giấy,Cầu Giấy",21.03228, 105.80073,Tier 1,NEXT,CH,MBC01,x,x,x,ON
MBC,HA NOI,Quận Cầu Giấy,PNJ Vincom Trần Duy Hưng,21.01420328026579, 105.8037148781163,Tier 1,NEW CENTER,CH,MBC06,x,x,x,ON
MBC,HA NOI,Quận Cầu Giấy,"TTKH 217 Lạc Long Quân,Cầu Giấy",21.03228, 105.80073,Tier 1,NEW CENTER,CH,MBC01,x,x,,ON
MBC,HA NOI,Quận Cầu Giấy,"TTKH 334 Cầu Giấy,Cầu Giấy",21.0355601, 105.7929013,Tier 1,NEW CENTER,CH,MBC01,x,,,ON
MBC,HA NOI,Quận Cầu Giấy,"TTKH 67 Trần Duy Hưng,Cầu Giấy",21.03228, 105.80073,Tier 1,NEW CENTER,CH,MBC01,x,x,,ON
MBC,HA NOI,Quận Cầu Giấy,"TTKH 7 Hồ Tùng Mậu,Cầu Giấy",21.03228, 105.80073,Tier 1,NEW CENTER,CH,MBC01,x,x,x,ON
MBC,HA NOI,Quận Cầu Giấy,Vincom Skylake Phạm Hùng,21.06129954200907, 105.94612901441404,Tier 1,CENTER,CH,,,,,OFF
MBC,HA NOI,Quận Đống Đa,"CH Bạc 136 Tôn Đức Thắng,Đống",21.02009, 105.83097,Tier 1,CENTER,CH,,,,,OFF
MBC,HA NOI,Quận Đống Đa,PNJ Vincom Nguyễn Chí Thanh,21.023536, 105.808892,Tier 1,NEW CENTER,CH,MBC06,,,,OFF
MBC,HA NOI,Quận Đống Đa,"TTKH 129 Chùa Bộc,Đống Đa",21.02009, 105.83097,Tier 1,NEW CENTER,CH,MBC05,x,x,,ON
MBC,HA NOI,Quận Đống Đa,"TTKH 243 Xã Đàn,Đống Đa",21.02009, 105.83097,Tier 1,NEW CENTER,CH,MBC05,x,x,,ON
MBC,HA NOI,Quận Đống Đa,Vincom Phạm Ngọc Thạch,21.00868504568543, 105.8477446383875,Tier 1,CENTER,CH,,,,,OFF
MBC,HA NOI,Quận Hà Đông,"CH Bạc 87A Quang Trung,Hà Đông",20.97136, 105.77876,Tier 1,CENTER,CH,,,,,OFF
MBC,HA NOI,Quận Hà Đông,Co.op Hà Đông,20.972863, 105.777943,Tier 1,CENTER,CH,,,,,OFF
MBC,HA NOI,Quận Hà Đông,PNJ Aeon Hà Đông,20.97136, 105.77876,Tier 1,NEW CENTER,CH,MBC06,x,x,,ON
MBC,HA NOI,Quận Hà Đông,PNJ Aeon Mall Hà Đông 2,47.28167, 8.45023,Tier 1,NEW CENTER,CH,MBC06,x,,x,ON
MBC,HA NOI,Quận Hà Đông,PNJ Bạc Aeon Hà Đông,20.97136, 105.77876,Tier 1,CENTER,CH,,,,,OFF
MBC,HA NOI,Quận Hà Đông,"TTKH 58 Quang Trung,Hà Đông",20.97136, 105.77876,Tier 1,NEW CENTER,CH,MBC02,x,x,x,ON
MBC,HA NOI,Quận Hai Bà Trưng,"CH Bạc 26 Trần Đại Nghĩa,Hai B",21.00626, 105.85537,Tier 1,CENTER,CH,,,,,OFF
MBC,HA NOI,Quận Hai Bà Trưng,"CH Bạc 280 Bà Triệu,Hai Bà Trư",21.00626, 105.85537,Tier 1,CENTER,CH,,,,,OFF
MBC,HA NOI,Quận Hai Bà Trưng,"CH Bạc 6B Trần Nhân Tông,Hai B",21.00626, 105.85537,Tier 1,CENTER,CH,,,,,OFF
MBC,HA NOI,Quận Hai Bà Trưng,CH Bạc Bạch Mai HNI,20.996607244082544, 105.8504587803337,Tier 1,CENTER,CH,,,,,OFF
MBC,HA NOI,Quận Hai Bà Trưng,DC _CHI NHÁNH MIỀN BẮC,21.017078022081016, 105.85173049197715,,,DC,,,,,ON
MBC,HA NOI,Quận Hai Bà Trưng,PNJ Vincom Bà Triệu,21.009321, 105.849081,Tier 1,CENTER,CH,MBC04,,,,OFF
MBC,HA NOI,Quận Hai Bà Trưng,PNJ Vincom Timescity,20.9953763799168, 105.86961588588379,Tier 1,NEW CENTER,CH,MBC06,x,x,,ON
MBC,HA NOI,Quận Hai Bà Trưng,"TTKH 514 Bạch Mai,Hai Bà Trưng",21.00626, 105.85537,Tier 1,NEW CENTER,CH,MBC02,x,x,,ON
MBC,HA NOI,Quận Hai Bà Trưng,"TTKH 6A Trần Nhân Tông,Hai Bà",21.00626, 105.85537,Tier 1,NEW CENTER,CH,MBC04,x,x,x,ON
MBC,HA NOI,Quận Hai Bà Trưng,"TTKH NEXT 189 Bà Triệu, Hà Nội",21.0245, 105.84117,Tier 1,NEXT,CH,MBC02,x,x,x,ON
MBC,HA NOI,Quận Hoàn Kiếm,CH Bạc Hàng Bông HNI,21.02954582292926, 105.84564605759167,Tier 1,CENTER,CH,,,,,OFF
MBC,HA NOI,Quận Hoàn Kiếm,CH Bạc Nguyễn Hữu Huân HNI,21.033182004758608, 105.85518205519921,Tier 1,CENTER,CH,,,,,OFF
MBC,HA NOI,Quận Hoàng Mai,"TTKH 8-10, Tân Mai, Hà Nội",21.24972, 106.11405,Tier 1,NEW CENTER,CH,MBC06,x,x,x,ON
MBC,HA NOI,Quận Hoàng Mai,"TTKH CT4A, Bắc Linh Đàm, Đại Kim",-28.73226, 24.76232,Tier 1,NEW CENTER,CH,MBC02,x,x,x,ON
MBC,HA NOI,Quận Long Biên,BigC Savico,21.050767198660022, 105.8935532496497,Tier 1,CENTER,CH,,,,,OFF
MBC,HA NOI,Quận Long Biên,"CH Bạc 231 Ngọc Lâm,Long Biên",21.04841267730363, 105.8750724786187,Tier 1,CENTER,CH,,,,,OFF
MBC,HA NOI,Quận Long Biên,PNJ Aeon Long Biên,21.027557497166978, 105.9002677533741,Tier 1,NEW CENTER,CH,MBC06,x,,,ON
MBC,HA NOI,Quận Long Biên,PNJ Bạc Aeon Long Biên,21.027557497166978, 105.9002677533741,Tier 1,CENTER,CH,,,,,OFF
MBC,HA NOI,Quận Long Biên,PNJ Savico Hà Nội,21.05102190551261, 105.89753854794913,Tier 1,NEW CENTER,CH,MBC06,x,x,x,ON
MBC,HA NOI,Quận Long Biên,"TTKH 311-313 Nguyễn Văn Cừ,Long Biên",21.04589650423234, 105.87623270307834,Tier 1,NEW CENTER,CH,MBC04,x,x,x,ON
MBC,HA NOI,Quận Nam Từ Liêm,PNJ Vincom Smart City Hà Nội,21.0245, 105.84117,Tier 1,NEW CENTER,CH,MBC06,x,x,,ON
MBC,HA NOI,Quận Nam Từ Liêm,"TTKH 324-326 Nguyễn Trãi, Nam Từ Liêm",10.758078111547714, 106.67871185658115,Tier 1,NEW CENTER,CH,MBC02,x,x,x,ON
MBC,HA NOI,Quận Tây Hồ,CH Bạc Lạc Long Quân HNI,21.05398782020674, 105.80954349752854,Tier 1,CENTER,CH,,,,,OFF
MBC,HA NOI,Quận Thanh Xuân,BigC Lê Trọng Tấn,20.99989558929944, 105.8286517806051,Tier 1,CENTER,CH,,,,,OFF
MBC,HA NOI,Quận Thanh Xuân,"CH Bạc 106B6 Nguyễn Quý Đức,Th",14.48985, 109.09162,Tier 1,CENTER,CH,,,,,OFF
MBC,HA NOI,Quận Thanh Xuân,PNJ Vincom Royalcity,21.001342052074897, 105.81655044964808,Tier 1,NEW CENTER,CH,MBC06,x,x,,ON
MBC,HA TINH,Thành phố Hà Tĩnh,"TTKH 75 Phan Đình Phùng,Hà Tĩn",18.33333, 105.75,Tier 3,NEW CENTER,CH,MBC03,x,x,x,ON
MBC,HA TINH,Thành phố Hà Tĩnh,Vincom Hà Tĩnh,20.9502834, 107.084194,Tier 3,CENTER,CH,,,,,OFF
MBC,HAI DUONG,Thành phố Chí Linh,"TTKH 01 Nguyễn Thái Học,Chí Li",21.06667, 106.31667,Tier 3,NEW CENTER,CH,MBC04,x,x,,ON
MBC,HAI DUONG,Thành phố Chí Linh,Vincom Hải Dương,21.110466, 106.389506,Tier 3,CENTER,CH,,,,,OFF
MBC,HAI DUONG,Thành phố Hải Dương,BigC Hải Dương,21.110466, 106.389506,Tier 2,CENTER,CH,,,,,OFF
MBC,HAI DUONG,Thành phố Hải Dương,"TTKH 113 Phạm Ngũ Lão,Hải Dương",20.91667, 106.33333,Tier 2,NEW CENTER,CH,MBC04,x,x,x,ON
MBC,HAI PHONG,Huyện Thuỷ Nguyên,"TTKH 108-110 Bạch Đằng, Thủy Nguyên",20.934075232220685, 106.74292692878184,Tier 3,NEW CENTER,CH,MBC01,x,x,,ON
MBC,HAI PHONG,Quận Hồng Bàng,PNJ Vincom Imperia Hải Phòng,20.86481, 106.68345,Tier 3,CENTER,CH,MBC01,,,,OFF
MBC,HAI PHONG,Quận Lê Chân,AEONMALL Hải Phòng,20.86481, 106.68345,Tier 1,NEW CENTER,CH,MBC01,x,,,ON
MBC,HAI PHONG,Quận Lê Chân,"TTKH 266A Trần Nguyên Hãn,Hải",20.86481, 106.68345,Tier 1,NEW CENTER,CH,MBC01,x,x,,ON
MBC,HAI PHONG,Quận Ngô Quyền,"PNJ NEXT 54-56 Cầu Đất,Hải Phòng",20.86481, 106.68345,Tier 1,NEXT,CH,MBC01,x,x,x,ON
MBC,HAI PHONG,Quận Ngô Quyền,PNJ Vincom Lê Thánh Tông Hải Phòng,20.8657245, 106.6914145,Tier 1,CENTER,CH,MBC01,,,,OFF
MBC,HAI PHONG,Quận Ngô Quyền,"TTKH 128A Lạch Tray,Hải Phòng",20.77401, 106.74368,Tier 1,NEW CENTER,CH,MBC01,x,x,x,ON
MBC,HAI PHONG,Quận Ngô Quyền,"TTKH 34A-34B Đà Nẵng, Máy Tơ, Quận Ngô Quyền",20.86155186929984, 106.6943488372358,Tier 1,NEW CENTER,CH,MBC01,x,,,ON
MBC,HOA BINH,Thành phố Hòa Bình,"TTKH 720 Cù Chính Lan, Thành Phố Hòa Bình",20.822820710909358, 105.34548749382084,Tier 3,NEW CENTER,CH,MBC05,x,x,,ON
MBC,LANG SON,Thành phố Lạng Sơn,"TTKH 1 Tam Thanh,Lạng Sơn",21.85264, 106.76101,Tier 3,NEW CENTER,CH,MBC04,x,x,,ON
MBC,LAO CAI,Thành phố Lào Cai,"TTKH 188A Hoàng Liên,Lào Cai",22.26667, 103.95,Tier 2,NEW CENTER,CH,MBC05,x,x,,ON
MBC,LAO CAI,Thành phố Lào Cai,"TTKH Ngã 6 Lý Công Uẩn, Lào Cai",22.48556, 103.97066,Tier 2,NEW CENTER,CH,MBC05,x,x,x,ON
MBC,NAM DINH,Thành phố Nam Định,PNJ Bạc BigC Nam Định,20.43389, 106.17729,Tier 2,CENTER,CH,,,,,OFF
MBC,NAM DINH,Thành phố Nam Định,"TTKH 52 Quang Trung,Nam Định",20.43389, 106.17729,Tier 2,NEW CENTER,CH,MBC03,x,x,x,ON
MBC,NGHE AN,Huyện Diễn Châu,"TTKH Diễn Châu, Nghệ An",18.98083, 105.59884,Tier 3,LOW COST,CH,MBC03,x,x,,ON
MBC,NGHE AN,Thành phố Vinh,"PNJ Next LK4 Quang Trung, Vinh",20.5055, 106.14359,Tier 2,NEXT,CH,MBC03,x,x,x,ON
MBC,NGHE AN,Thành phố Vinh,"TTKH 10-11 Quang Trung Vinh,Ng",18.67337, 105.69232,Tier 2,NEW CENTER,CH,MBC03,x,x,x,ON
MBC,NGHE AN,Thành phố Vinh,"TTKH 85 Nguyễn Văn Cừ, Vinh",18.67337, 105.69232,Tier 2,NEW CENTER,CH,MBC03,x,x,x,ON
MBC,NINH BINH,Thành phố Ninh Bình,"TTKH 159 Trần Hưng Đạo,Ninh Bình",20.25809, 105.97965,Tier 2,NEW CENTER,CH,MBC03,x,x,x,ON
MBC,PHU THO,Thành phố Việt Trì,PNJ Vincom Việt Trì,21.31228, 105.395837,Tier 2,CENTER,CH,MBC05,,,,OFF
MBC,PHU THO,Thành phố Việt Trì,"TTKH 1580 Hùng Vương,Việt Trì",21.31228, 105.395837,Tier 2,NEW CENTER,CH,MBC05,x,x,x,ON
MBC,PHU THO,Thành phố Việt Trì,"TTKH 1783-1785 Hùng Vương, Việt Trì",21.32274, 105.40198,Tier 2,NEW CENTER,CH,MBC05,x,x,x,ON
MBC,QUANG NINH,Thành phố Cẩm Phả,"TTKH 245 Trần Phú,Cẩm Phả",21.01004, 107.27345,Tier 3,NEW CENTER,CH,MBC04,x,x,x,ON
MBC,QUANG NINH,Thành phố Hạ Long,BigC Hạ Long,20.954517, 107.085392,Tier 1,CENTER,CH,,,,,OFF
MBC,QUANG NINH,Thành phố Hạ Long,PNJ Vincom Hạ Long,20.9502834, 107.084194,Tier 1,NEW CENTER,CH,MBC04,x,x,,ON
MBC,QUANG NINH,Thành phố Hạ Long,"TTKH Lô 1-2 Trần Hưng Đạo,Hạ L",20.95045, 107.07336,Tier 1,NEW CENTER,CH,MBC04,x,x,x,ON
MBC,QUANG NINH,Thành phố Móng Cái,"TTKH 168 Hùng Vương,Móng Cái",21.52471, 107.96619,Tier 2,NEW CENTER,CH,MBC04,x,x,,ON
MBC,SON LA,Thành phố Sơn La,"TTKH 27 Trường Chinh, Sơn La",21.3256, 103.91882,Tier 3,NEW CENTER,CH,MBC05,x,x,x,ON
MBC,THAI BINH,Thành phố Thái Bình,"TTKH 211-213 Hai Bà Trưng,Thái",20.45, 106.34002,Tier 2,NEW CENTER,CH,MBC03,x,x,x,ON
MBC,THAI NGUYEN,Thành phố Thái Nguyên,"TTKH 110 Lương Ngọc Quyến,Thái",21.5979388, 105.8243686,Tier 2,NEW CENTER,CH,MBC05,x,x,x,ON
MBC,THAI NGUYEN,Thị xã Phổ Yên,"TTKH 213 Lý Nam Đế, Đồng Tiến, Phổ Yên, Thái Nguyên",21.41443177269995, 105.8713677531393,Tier 3,LOW COST,CH,MBC05,x,x,,ON
MBC,THANH HOA,Thành phố Thanh Hóa,PNJ Vincom Trần Phú Thanh Hóa,19.809815, 105.777366,Tier 2,CENTER,CH,MBC03,x,x,,ON
MBC,THANH HOA,Thành phố Thanh Hóa,"TTKH 139-141 Lê Hoàn,Thanh Hóa",19.8, 105.76667,Tier 2,NEW CENTER,CH,MBC03,x,x,x,ON
MBC,TUYEN QUANG,Thành phố Tuyên Quang,"TTKH 82 Quang Trung,Tuyên Quan",21.96252, 105.22799,Tier 3,NEW CENTER,CH,MBC05,x,x,x,ON
MBC,TUYEN QUANG,Thành phố Tuyên Quang,Vincom Tuyên Quang,21.818915, 105.205262,Tier 3,CENTER,CH,,,,,OFF
MBC,VINH PHUC,Thành phố Phúc Yên,"TTKH 12-14 Trần Hưng Đạo, Phúc Yên",21.23695, 105.70483,Tier 2,NEW CENTER,CH,MBC05,x,x,x,ON
MBC,VINH PHUC,Thành phố Vĩnh Yên,"TTKH 13 Lê Xoay,Vĩnh Phúc",21.03333, 105.81667,Tier 2,NEW CENTER,CH,MBC05,x,x,x,ON
MBC,YEN BAI,Thành phố Yên Bái,"TTKH 595 Điện Biên,Yên Bái",21.72288, 104.9113,Tier 3,NEW CENTER,CH,MBC05,x,x,x,ON
MTG,BINH DINH,Huyện Tây Sơn,"TTKH 311 Quang Trung, Tây Sơn",13.94306, 108.87999,Tier 3,LOW COST,CH,MTG04,x,x,,ON
MTG,BINH DINH,Thành phố Qui Nhơn,PNJ BigC Quy Nhơn,13.7546041, 109.2077367,Tier 1,NEW CENTER,CH,MTG04,x,x,x,ON
MTG,BINH DINH,Thành phố Qui Nhơn,PNJ Coop Quy Nhơn,13.77648, 109.22367,Tier 1,NEW CENTER,CH,MTG04,x,x,,ON
MTG,BINH DINH,Thành phố Qui Nhơn,"PNJ Next 07-09-11 Ngô Mây, Lý Thường Kiệt, Thành phố Qui Nhơn, Bình Định",13.767796499852444, 109.22283481718341,Tier 1,NEXT,CH,MTG04,x,x,x,ON
MTG,BINH DINH,Thành phố Qui Nhơn,"TTKH 153 Phan Bội Châu,Quy Nhơ",13.77648, 109.22367,Tier 1,CENTER,CH,MTG04,x,x,,ON
MTG,BINH DINH,Thành phố Qui Nhơn,"TTKH 171 Nguyễn Thái Học,Quy N",13.77648, 109.22367,Tier 1,NEW CENTER,CH,MTG04,x,x,x,ON
MTG,BINH DINH,Thành phố Qui Nhơn,"TTKH 334-336 Trần Hưng Đạo,Quy",13.77648, 109.22367,Tier 1,NEW CENTER,CH,MTG04,x,x,x,ON
MTG,BINH DINH,Thị xã An Nhơn,"TTKH PNJ 279-281 Ngô Gia Tự, An Nhơn",13.88579, 109.10823,Tier 3,CENTER,CH,MTG04,x,x,,ON
MTG,BINH DINH,Thị Xã Hoài Nhơn,"TTKH 268 QUANG TRUNG, H. HOÀI NHƠN",14.50535, 109.02315,Tier 3,CENTER,CH,MTG04,x,x,,ON
MTG,DA NANG,Quận Cẩm Lệ,"TTKH 72 Ông Ích Đường,Cẩm Lệ",16.01771, 108.20381,Tier 2,NEW CENTER,CH,MTG04,x,x,,ON
MTG,DA NANG,Quận Cẩm Lệ,"TTKH PNJ NewCenter – 347 Nguyễn Hữu Thọ, Khuê Trung, Cẩm Lệ, Đà Nẵng",16.06778, 108.22083,Tier 2,NEW CENTER,CH,MTG02,x,x,,ON
MTG,DA NANG,Quận Hải Châu,"CH Bạc 77 Phan Chu Trinh,Hải Châu",15.05, 108.88333,Tier 1,CENTER,CH,MTG02,,,,OFF
MTG,DA NANG,Quận Hải Châu,DC _CHI NHÁNH MIỀN TRUNG,16.057090110639283, 108.21923405930005,,,DC,,,,,ON
MTG,DA NANG,Quận Hải Châu,PNJ Lottemart Đà Nẵng,16.06778, 108.22083,Tier 1,NEW CENTER,CH,MTG01,x,x,,ON
MTG,DA NANG,Quận Hải Châu,"PNJ NEXT 123 Nguyễn Văn Linh,Hải Châu",15.05, 108.88333,Tier 1,NEXT,CH,MTG02,x,x,x,ON
MTG,DA NANG,Quận Hải Châu,Sân bay Đà Nẵng - Quốc tế,16.05646504949382, 108.20322379368588,Tier 1,CENTER,CH,MTG02,,,,OFF
MTG,DA NANG,Quận Hải Châu,"TTKH 123 Hùng Vương,Hải Châu",16.067893, 108.217157,Tier 1,NEW CENTER,CH,MTG02,x,x,x,ON
MTG,DA NANG,Quận Hải Châu,"TTKH 359 Phan Châu Trinh,Hải Châu",16.0568883, 108.2189191,Tier 1,NEW CENTER,CH,MTG03,x,x,,ON
MTG,DA NANG,Quận Hải Châu,"TTKH 455 Núi Thành,Hải Châu",15.05, 108.88333,Tier 1,NEW CENTER,CH,MTG01,x,x,,ON
MTG,DA NANG,Quận Hải Châu,"TTKH 70-72 Trần Phú,Hải Châu",16.0701285, 108.2239216,Tier 1,NEW CENTER,CH,MTG03,x,x,x,ON
MTG,DA NANG,Quận Liên Chiểu,"TTKH 691 Tôn Đức Thắng, Liên C",16.065706, 108.154721,Tier 2,NEW CENTER,CH,MTG01,x,x,,ON
MTG,DA NANG,Quận Ngũ Hành Sơn,"TTKH 165 Nguyễn Văn Thoại,Sơn",15.38333, 108.78333,Tier 2,NEW CENTER,CH,MTG04,x,x,,ON
MTG,DA NANG,Quận Sơn Trà,PNJ Vincom Ngô Quyền Đà Nẵng,16.0589243, 108.2349282,Tier 2,NEW CENTER,CH,MTG04,x,x,,ON
MTG,DA NANG,Quận Thanh Khê,PNJ BigC Đà Nẵng,16.066657, 108.213055,Tier 1,CENTER,CH,MTG03,x,x,,ON
MTG,DA NANG,Quận Thanh Khê,"TTKH 365-369 Nguyễn Văn Linh,Thanh Khê",16.06778, 108.22083,Tier 1,NEW CENTER,CH,MTG04,x,x,,ON
MTG,DA NANG,Quận Thanh Khê,"TTKH 411 Lê Duẩn,Thanh Khê",16.0678837, 108.2082142,Tier 1,NEW CENTER,CH,MTG01,x,x,,ON
MTG,DA NANG,Quận Thanh Khê,"TTKH 513 Điện Biên Phủ,Thanh K",20.95, 106.06667,Tier 1,NEW CENTER,CH,MTG01,x,x,x,ON
MTG,QUANG BINH,Huyện Bố Trạch,"TTKH 404 Hùng Vương, H. Bố Trạch",17.58436, 106.53425,Tier 3,CENTER,CH,MTG03,x,x,,ON
MTG,QUANG BINH,thành phố Đồng Hới,PNJ Vincom Đồng Hới,17.46885, 106.62226,Tier 1,NEW CENTER,CH,MTG03,x,x,,ON
MTG,QUANG BINH,thành phố Đồng Hới,"TTK 05, Mẹ Suốt, Tp Đồng Hới",17.46885, 106.62226,Tier 1,NEW CENTER,CH,MTG03,x,x,,ON
MTG,QUANG BINH,thành phố Đồng Hới,"TTKH 79A Trần Hưng Đạo,Đồng Hớ",17.46885, 106.62226,Tier 1,NEW CENTER,CH,MTG03,x,x,x,ON
MTG,QUANG BINH,Thị xã Ba Đồn,"TTKH 93 Hùng Vương,Ba Đồn",17.75353, 106.42355,Tier 2,CENTER,CH,MTG03,x,x,,ON
MTG,QUANG NAM,Huyện Núi Thành,"TTKH 244 PHẠM VĂN ĐỒNG, H. NÚI",15.43194, 108.65946,Tier 3,CENTER,CH,MTG02,x,x,,ON
MTG,QUANG NAM,Huyện Thăng Bình,"TTKH 42 Nguyễn Hoàng, Huyện Thăng Bình",15.73333, 108.36667,Tier 3,LOW COST,CH,MTG02,x,x,,ON
MTG,QUANG NAM,Thành phố Hội An,"TTKH 236 Lý Thường Kiệt,Hội An",15.87944, 108.335,Tier 2,NEW CENTER,CH,MTG02,x,x,x,ON
MTG,QUANG NAM,Thành phố Hội An,Vinpearl Nam Hội An,15.8802681, 108.3268883,Tier 3,CENTER,CH,MTG01,,,,OFF
MTG,QUANG NAM,Thành phố Tam Kỳ,"TTKH 461 Phan Châu Trinh,Tam K",15.565279, 108.494337,Tier 1,NEW CENTER,CH,MTG02,x,x,x,ON
MTG,QUANG NAM,Thị xã Điện Bàn,"TTKH 2 Trần Quy Cáp, Vĩnh Điện, Điện Bàn, Quảng Nam",15.88853, 108.25447,Tier 3,CENTER,CH,MTG02,x,x,,ON
MTG,QUANG NGAI,Huyện Bình Sơn,"TTKH 181 Phạm Văn Đồng, TT Châu Ổ, H Bình Sơn, Quảng Ngãi",15.12047, 108.79232,Tier 3,CENTER,CH,MTG02,x,x,,ON
MTG,QUANG NGAI,Thành phố Quảng Ngãi,PNJ Bạc Coop Quảng Ngãi,15.12047, 108.79232,Tier 2,CENTER,CH,MTG02,,,,OFF
MTG,QUANG NGAI,Thành phố Quảng Ngãi,PNJ Vincom Quảng Ngãi,15.12047, 108.79232,Tier 1,NEW CENTER,CH,MTG02,x,x,,ON
MTG,QUANG NGAI,Thành phố Quảng Ngãi,"TTKH 234 Phan Đình Phùng,Quảng",15.12047, 108.79232,Tier 1,NEW CENTER,CH,MTG02,x,x,x,ON
MTG,QUANG NGAI,Thành phố Quảng Ngãi,"TTKH 358-360 Quang Trung,Quảng Ngãi",15.12047, 108.79232,Tier 1,CENTER,CH,MTG02,x,x,x,ON
MTG,QUANG NGAI,Thành phố Quảng Ngãi,TTKH Hùng Vương QNI,6.14543, 6.78845,Tier 2,CENTER,CH,MTG02,,,,OFF
MTG,QUANG NGAI,Thị Xã Đức Phổ,"TTKH 245 Nguyễn Nghiêm, TX Đức Phổ",14.78, 108.97857,Tier 3,CENTER,CH,MTG02,x,x,,ON
MTG,QUANG TRI,Thành phố Đông Hà,"TTKH 86 Quốc Lộ 9B,Đông Hà",20.96667, 106.3,Tier 1,NEW CENTER,CH,MTG03,x,x,x,ON
MTG,QUANG TRI,Thị Xã Quảng Trị,"Số 10 Trần Hưng Đạo, Thị Xã Quảng Trị, tỉnh Quảng Trị",16.75, 107.2,Tier 3,CENTER,CH,MTG03,x,x,,ON
MTG,THUA THIEN HUE,Thành phố Huế,"271 Trần Hưng Đạo, Huế",16.4619, 107.59546,Tier 1,NEW CENTER,CH,MTG01,x,x,,ON
MTG,THUA THIEN HUE,Thành phố Huế,"PNJ AEON Mall Huế, Lô T110, tầng 1, Võ Nguyên Giáp, An Đông",16.4619, 107.59546,Tier 1,NEW CENTER,CH,MTG01,x,x,,ON
MTG,THUA THIEN HUE,Thành phố Huế,PNJ Bạc BigC Huế,16.4619, 107.59546,Tier 2,CENTER,CH,MTG03,,,,OFF
MTG,THUA THIEN HUE,Thành phố Huế,PNJ Vincom Huế,16.4619, 107.59546,Tier 1,NEW CENTER,CH,MTG01,x,,,ON
MTG,THUA THIEN HUE,Thành phố Huế,"TTKH 176 Mai Thúc Loan,Huế",16.4619, 107.59546,Tier 1,CENTER,CH,MTG01,x,x,,ON
MTG,THUA THIEN HUE,Thành phố Huế,"TTKH 186 Hùng Vương,Huế",16.4619, 107.59546,Tier 1,NEW CENTER,CH,MTG01,x,x,x,ON
MTG,THUA THIEN HUE,Thành phố Huế,"TTKH 27 Hà Nội,Huế",16.4619, 107.59546,Tier 1,NEXT,CH,MTG01,x,x,x,ON
MTG,THUA THIEN HUE,Thị xã Hương Thủy,"TTKH 1066 Nguyễn Tất Thành, Phú Bài",16.41077611012309, 107.67566569369451,Tier 3,NEW CENTER,CH,MTG01,x,x,,ON
MTY,AN GIANG,Huyện Châu Phú,"129 Quốc lộ 91, TT. Cái Dầu, Châu Phú, An Giang",10.57166, 105.16991,Tier 3,CENTER,CH,MTY03,x,x,,ON
MTY,AN GIANG,Huyện Chợ Mới,"TTKH 13A Nguyễn Hữu Cảnh,Chợ Mới, An Giang",22.0, -102.5,Tier 3,LOW COST,CH,MTY03,x,x,,ON
MTY,AN GIANG,Huyện Thoại Sơn,"TTKH 146 Nguyễn Huệ, Thoại Sơn, An Giang",22.0, -102.5,Tier 3,CENTER,CH,MTY03,x,x,,ON
MTY,AN GIANG,Thành phố Châu Đốc,PNJ Coop Châu Đốc,10.7, 105.11667,Tier 2,CENTER,CH,MTY03,x,,,ON
MTY,AN GIANG,Thành phố Châu Đốc,"TTKH 19-21 Nguyễn Văn Thoại,Châu Đốc",10.709306, 105.118396,Tier 2,NEW CENTER,CH,MTY03,x,x,x,ON
MTY,AN GIANG,Thành phố Long Xuyên,PNJ Coop Long Xuyên,10.38639, 105.43518,Tier 1,CENTER,CH,MTY03,,,,OFF
MTY,AN GIANG,Thành phố Long Xuyên,PNJ Vincom Long Xuyên,10.383757, 105.43705,Tier 1,NEW CENTER,CH,MTY03,x,x,,ON
MTY,AN GIANG,Thành phố Long Xuyên,"TTKH 1179, Trần Hưng Đạo, Long Xuyên, An Giang",10.383757, 105.43705,Tier 1,NEW CENTER,CH,MTY03,x,x,x,ON
MTY,AN GIANG,Thành phố Long Xuyên,"TTKH 198 Hà Hoàng Hổ,Long Xuyên",10.378078, 105.435364,Tier 1,NEW CENTER,CH,MTY03,x,x,x,ON
MTY,AN GIANG,Thành phố Long Xuyên,"TTKH 65 Hai Bà Trưng,Long Xuyên",10.38639, 105.43518,Tier 1,CENTER,CH,MTY03,x,,x,ON
MTY,AN GIANG,Thị xã Tân Châu,"TTKH 107 Nguyễn Tri Phương, Tân Châu",22.0, -102.5,Tier 3,CENTER,CH,MTY03,x,x,,ON
MTY,BAC LIEU,Thành phố Bạc Liêu,"TTKH 15 Bà Triệu,Bạc Liêu",9.29414, 105.72776,Tier 2,CENTER,CH,MTY04,,,,OFF
MTY,BAC LIEU,Thành phố Bạc Liêu,"TTKH 165 Trần Phú,Bạc Liêu",9.29414, 105.72776,Tier 2,CENTER,CH,MTY04,x,x,x,ON
MTY,BAC LIEU,Thành phố Bạc Liêu,TTKH Vincom shophouse Bạc Liêu,9.29414, 105.72776,Tier 2,NEW CENTER,CH,MTY04,x,x,x,ON
MTY,BAC LIEU,Thành phố Bạc Liêu,Vincom Bạc Liêu,9.291023, 105.720843,Tier 2,CENTER,CH,MTY04,,,,OFF
MTY,BAC LIEU,Thị xã Giá Rai,"TTKH 46-48 Quốc lộ 1A, P. Hộ Phòng, Giá Rai, Bạc Liêu",9.23444, 105.45833,Tier 3,CENTER,CH,MTY04,x,x,,ON
MTY,BEN TRE,Huyện Bình Đại,"TTKH 170, khu phố 1, Bình Đại",10.178388406757463, 106.70278997182221,Tier 3,LOW COST,CH,MTY04,x,,,ON
MTY,BEN TRE,Thành phố Bến Tre,PNJ SenseCity Bến Tre,10.24147, 106.37585,Tier 2,NEW CENTER,CH,MTY04,x,x,,ON
MTY,BEN TRE,Thành phố Bến Tre,"TTKH 58C-62C Đồng Khởi,Bến Tre",10.24147, 106.37585,Tier 2,NEW CENTER,CH,MTY04,x,x,x,ON
MTY,BEN TRE,Thành phố Bến Tre,TTKH 81 NDC,10.24147, 106.37585,Tier 2,CENTER,CH,MTY04,x,x,x,ON
MTY,CA MAU,Huyện Năm Căn,"TTKH 163 Nguyễn Tất Thành, Năm Căn",6.0, 12.5,Tier 3,CENTER,CH,MTY04,x,x,,ON
MTY,CA MAU,Thành phố Cà Mau,PNJ Sensecity Cà Mau,9.17682, 105.15242,Tier 2,NEW CENTER,CH,MTY04,x,x,,ON
MTY,CA MAU,Thành phố Cà Mau,"TTKH 153D Nguyễn Tất Thành, Cà Mau",9.17682, 105.15242,Tier 2,NEW CENTER,CH,MTY04,x,x,x,ON
MTY,CA MAU,Thành phố Cà Mau,"TTKH 4A Hùng Vương,Cà Mau",9.17682, 105.15242,Tier 2,CENTER,CH,MTY04,,,,OFF
MTY,CA MAU,Thành phố Cà Mau,"TTKH 70 Trần Hưng Đạo,Cà Mau",9.17682, 105.15242,Tier 2,CENTER,CH,MTY04,x,x,x,ON
MTY,CAN THO,Quận Ninh Kiều,"Center 178 Trần Hưng Đạo, Ninh Kiều",10.034998, 105.775148,Tier 1,NEW CENTER,CH,MTY01,x,x,x,ON
MTY,CAN THO,Quận Ninh Kiều,CH Bạc Hai Bà Trưng CTO,40.90649, -72.74343,Tier 1,CENTER,CH,MTY01,,,,OFF
MTY,CAN THO,Quận Ninh Kiều,DC_ CHI NHÁNH MIỀN TÂY,10.024757846023213, 105.77503555812707,,,DC,,,,,ON
MTY,CAN THO,Quận Ninh Kiều,"NEXT 209 Ba Mươi Tháng Tư, Ninh Kiều",10.03711, 105.78825,Tier 1,NEXT,CH,MTY01,x,,x,ON
MTY,CAN THO,Quận Ninh Kiều,PNJ Lottemart Cần Thơ,10.03711, 105.78825,Tier 1,CENTER,CH,MTY01,x,x,,OFF
MTY,CAN THO,Quận Ninh Kiều,PNJ Sensecity Cần Thơ,10.03711, 105.78825,Tier 1,NEW CENTER,CH,MTY01,x,x,,ON
MTY,CAN THO,Quận Ninh Kiều,PNJ Vincom Xuân Khánh,10.024829, 105.774634,Tier 1,NEW CENTER,CH,MTY01,x,x,,ON
MTY,CAN THO,Quận Ninh Kiều,"TTKH 208 Nguyễn Văn Cừ,Ninh Ki",10.047446, 105.769213,Tier 1,NEW CENTER,CH,MTY01,x,,x,ON
MTY,CAN THO,Quận Ninh Kiều,"TTKH 46 Ngô Quyền,Ninh Kiều",10.0342608, 105.7874126,Tier 1,NEW CENTER,CH,MTY01,x,x,x,ON
MTY,CAN THO,Quận Ô Môn,"TTKN 30-32 Trân Hưng Đạo, Ô Môn, Cần Thơ",10.10974, 105.62318,Tier 3,CENTER,CH,MTY01,x,x,x,ON
MTY,CAN THO,Quận Thốt Nốt,PNJ Coop Thốt Nốt,10.27213, 105.5338,Tier 3,NEW CENTER,CH,MTY01,x,x,,ON
MTY,CAN THO,Quận Thốt Nốt,"TTKH 288 Quốc lộ 91, Thốt Nốt, CT",41.66704, -72.66648,Tier 3,NEW CENTER,CH,MTY01,x,x,x,ON
MTY,DONG THAP,Huyện Tháp Mười,"TTKH 54-56 Hùng Vương, Tháp Mười, Đồng Tháp",10.51879125175496, 105.84460042611424,Tier 3,CENTER,CH,MTY02,x,x,,ON
MTY,DONG THAP,Thành phố Cao Lãnh,PNJ Coop Cao Lãnh,10.46017, 105.63294,Tier 2,CENTER,CH,MTY02,x,x,,ON
MTY,DONG THAP,Thành phố Cao Lãnh,PNJ Vincom Cao Lãnh,10.46017, 105.63294,Tier 2,CENTER,CH,MTY02,x,x,,ON
MTY,DONG THAP,Thành phố Cao Lãnh,"TTKH 110 Nguyễn Huệ, Tp Cao Lãnh, Đồng Tháp",10.456175203215714, 105.63701778933493,Tier 2,NEW CENTER,CH,MTY02,x,x,x,ON
MTY,DONG THAP,Thành phố Cao Lãnh,"TTKH 86 Nguyễn Huệ,Cao Lãnh",10.46017, 105.63294,Tier 2,CENTER,CH,MTY02,,,,OFF
MTY,DONG THAP,Thành phố Hồng Ngự,Co.op Hồng Ngự,10.8, 105.35,Tier 3,CENTER,CH,MTY02,,,,OFF
MTY,DONG THAP,Thành phố Hồng Ngự,"TTKH 71-73 Trần Hưng Đạo, H.Ng",10.8088688667059, 105.34440875125415,Tier 3,CENTER,CH,MTY02,x,x,x,ON
MTY,DONG THAP,Thành phố Sa Đéc,Co.op Sa Đéc,10.29085, 105.75635,Tier 2,CENTER,CH,MTY02,x,x,,ON
MTY,DONG THAP,Thành phố Sa Đéc,"TTKH 124 Hùng Vương,Sa Đéc",10.29136, 105.766926,Tier 2,NEW CENTER,CH,MTY02,x,x,x,ON
MTY,HAU GIANG,Huyện Long Mỹ,"TTKH 85-87 đường 30/4, Long Mỹ, Huyện Hậu Giang",9.681537206985759, 105.57370467822405,Tier 3,CENTER,CH,MTY04,x,x,x,ON
MTY,HAU GIANG,Thành phố Ngã Bảy,"TTKH 1039A Hùng Vương, Ngã Bảy",9.81371, 105.82096,Tier 3,CENTER,CH,MTY04,x,x,x,ON
MTY,HAU GIANG,Thành phố Vị Thanh,PNJ Vincom Hậu Giang,10.75599363463862, 106.64693104825035,Tier 2,CENTER,CH,MTY04,,,,OFF
MTY,HAU GIANG,Thành phố Vị Thanh,"TTKH 94-96 Nguyễn Thái Học,Vị Thanh",9.78449, 105.47012,Tier 2,NEW CENTER,CH,MTY04,x,x,x,ON
MTY,KIEN GIANG,Huyện Châu Thành,"TTKH 609 QL61, Châu Thành, Kiêng Giang",41.5, 75.0,Tier 3,CENTER,CH,MTY03,x,x,,ON
MTY,KIEN GIANG,Thành phố Hà Tiên,"TTKH 167-169 Mạc Thiên Tích,Hà Tiên",10.3831, 104.48753,Tier 3,NEW CENTER,CH,MTY03,x,x,x,ON
MTY,KIEN GIANG,Thành phố Phú Quốc,"TTKH 200A Nguyễn Trung Trực,Phú Quốc",10.22409, 103.97156,Tier 2,NEW CENTER,CH,MTY03,x,x,x,ON
MTY,KIEN GIANG,Thành phố Phú Quốc,"TTKH 69 Nguyễn Văn Cừ, An Thới, Phú Quốc",10.22409, 103.97156,Tier 2,CENTER,CH,MTY03,x,x,,ON
MTY,KIEN GIANG,Thành phố Phú Quốc,Vinpearl 1 Phú Quốc,47.27541, 8.4897,Tier 2,CENTER,CH,MTY03,,,,OFF
MTY,KIEN GIANG,Thành phố Phú Quốc,Vinpearl 2 Phú Quốc,47.28167, 8.45023,Tier 2,CENTER,CH,MTY03,,,,OFF
MTY,KIEN GIANG,Thành phố Rạch Giá,"TTKH 03 Phan Thị Ràng, Rạch Giá",10.003258, 105.081058,Tier 2,NEW CENTER,CH,MTY03,x,x,x,ON
MTY,KIEN GIANG,Thành phố Rạch Giá,"TTKH 353 Nguyễn Trung Trực,Rạc",9.997393, 105.092149,Tier 2,CENTER,CH,MTY03,x,x,x,ON
MTY,KIEN GIANG,Thành phố Rạch Giá,"TTKH 38 Hoàng Hoa Thám,Rạch Giá",10.01245, 105.08091,Tier 2,NEW CENTER,CH,MTY03,x,x,x,ON
MTY,LONG AN,Huyện Bến Lức,"PNJ Coop Bến Lức 61 QL1A, khu phố 4, TT Bến Lức, Bến Lức, Long An",10.65, 106.48333,Tier 3,CENTER,CH,MTY02,x,,,ON
MTY,LONG AN,Huyện Bến Lức,"TTKH 107 Nguyễn Hữu Thọ, Bến Lức, Long An",10.636931, 106.488917,Tier 3,NEW CENTER,CH,MTY02,x,x,x,ON
MTY,LONG AN,Huyện Cần Đước,"TTKH 8-9 KP Khang Gia, Huyện Cần Đước",10.50966, 106.60308,Tier 3,NEW CENTER,CH,MTY02,x,x,x,ON
MTY,LONG AN,Huyện Cần Giuộc,"PNJ Coop Cần Giuộc Ấp Thanh Ba, Xã Mỹ Lộc , Huyện Cần Giuộc , Long An",10.60857, 106.67135,Tier 3,CENTER,CH,MTY02,x,,,ON
MTY,LONG AN,Huyện Cần Giuộc,TTKH 300 QL50 Long An,10.60857, 106.67135,Tier 3,NEW CENTER,CH,MTY02,x,x,x,ON
MTY,LONG AN,Huyện Đức Hòa,"TTKH 118C-119C DT824, Đức Hòa",10.82365, 106.45735,Tier 3,CENTER,CH,MTY02,x,x,x,ON
MTY,LONG AN,Thành phố Tân An,PNJ Coop Tân An,10.53589, 106.41366,Tier 2,NEW CENTER,CH,MTY02,x,x,,ON
MTY,LONG AN,Thành phố Tân An,PNJ Vincom Tân An,10.53589, 106.41366,Tier 2,CENTER,CH,MTY02,,,,OFF
MTY,LONG AN,Thành phố Tân An,"TTKH 123B Hùng Vương,Tân An",10.53589, 106.41366,Tier 2,NEW CENTER,CH,MTY02,x,x,x,ON
MTY,LONG AN,Thành phố Tân An,"TTKH 51 Trương Định,Tân An",10.53589, 106.41366,Tier 2,NEW CENTER,CH,MTY02,x,x,x,ON
MTY,SOC TRANG,Thành phố Sóc Trăng,PNJ Coop Sóc Trăng,9.59995, 105.97193,Tier 2,CENTER,CH,MTY04,x,x,,ON
MTY,SOC TRANG,Thành phố Sóc Trăng,"TTKH 139 Trần Hưng Đạo,Sóc Trăng",9.59995, 105.97193,Tier 2,NEW CENTER,CH,MTY04,x,x,x,ON
MTY,SOC TRANG,Thành phố Sóc Trăng,"TTKH 25 Hai Bà Trưng,Sóc Trăng",9.59995, 105.97193,Tier 2,NEW CENTER,CH,MTY04,x,,x,ON
MTY,TIEN GIANG,Huyện Cái Bè,PNJ Sense Market Cái Bè,10.33566, 106.03226,Tier 3,NEW CENTER,CH,MTY01,x,x,,ON
MTY,TIEN GIANG,Thành phố Mỹ Tho,PNJ Coop Mỹ Tho,10.36004, 106.35996,Tier 2,NEW CENTER,CH,MTY01,x,x,,ON
MTY,TIEN GIANG,Thành phố Mỹ Tho,PNJ Go Mỹ Tho,10.36004, 106.35996,Tier 2,NEW CENTER,CH,MTY01,x,x,,ON
MTY,TIEN GIANG,Thành phố Mỹ Tho,"TTKH 112 Nam Kỳ Khởi Nghĩa, Mỹ Tho",10.36004, 106.35996,Tier 2,NEW CENTER,CH,MTY01,x,x,x,ON
MTY,TIEN GIANG,Thành phố Mỹ Tho,"TTKH 30/2 Ấp Bắc,Mỹ Tho",10.36004, 106.35996,Tier 2,NEW CENTER,CH,MTY01,x,x,x,ON
MTY,TIEN GIANG,Thị xã Cai Lậy,PNJ Coop Cai Lậy,10.4, 106.11667,Tier 3,NEW CENTER,CH,MTY01,x,x,,ON
MTY,TIEN GIANG,Thị xã Gò Công,PNJ Coop Gò Công,10.36667, 106.66667,Tier 3,NEW CENTER,CH,MTY01,x,,,ON
MTY,TIEN GIANG,Thị xã Gò Công,"TTKH 61A Trương Định, Gò Công",10.36667, 106.66667,Tier 3,NEW CENTER,CH,MTY01,x,x,x,ON
MTY,TRA VINH,Thành phố Trà Vinh,Co.op Trà Vinh,9.935281, 106.341557,Tier 3,CENTER,CH,MTY02,,,,OFF
MTY,TRA VINH,Thành phố Trà Vinh,PNJ Go Trà Vinh,9.94719, 106.34225,Tier 2,CENTER,CH,MTY02,x,x,,ON
MTY,TRA VINH,Thành phố Trà Vinh,"TTKH 2 Điện Biên Phủ,Trà Vinh",9.94719, 106.34225,Tier 2,NEW CENTER,CH,MTY02,x,x,x,ON
MTY,TRA VINH,Thành phố Trà Vinh,Vincom Trà Vinh,9.935281, 106.341557,Tier 3,CENTER,CH,MTY02,,,,OFF
MTY,TRA VINH,Thị xã Duyên Hải,PNJ Co.opmart Duyên Hải,9.63497, 106.49237,Tier 3,CENTER,CH,MTY02,,,,OFF
MTY,TRA VINH,Thị xã Duyên Hải,"TTKH 136 đường 2/9, Thị Trấn Duyên Hải, TX.Duyên Hải, Trà Vinh",45.83333, 12.21667,Tier 3,CENTER,CH,MTY02,x,x,x,ON
MTY,VINH LONG,Thành phố Vĩnh Long,PNJ Coop Vĩnh Long,10.25369, 105.9722,Tier 2,CENTER,CH,MTY02,x,x,,ON
MTY,VINH LONG,Thành phố Vĩnh Long,PNJ Vincom Vĩnh Long,10.249055, 105.974873,Tier 2,CENTER,CH,MTY02,,,,OFF
MTY,VINH LONG,Thành phố Vĩnh Long,"TTKH 1B Trưng Nữ Vương,Vĩnh Lo",10.25369, 105.9722,Tier 2,NEW CENTER,CH,MTY02,x,x,x,ON
MTY,VINH LONG,Thành phố Vĩnh Long,"TTKH 53A Phạm Thái Bường, Vĩnh Long",10.25369, 105.9722,Tier 2,NEW CENTER,CH,MTY02,x,x,,ON
MTY,VINH LONG,Thị xã Bình Minh,"TTKH 100 Ngô Quyền, Bình Minh, Vĩnh Long",10.06994606128981, 105.81950410815011,Tier 3,CENTER,CH,MTY02,x,x,,ON
TNN,BINH THUAN,Huyện Tuy Phong,"PNJ Coop Phan Rí Cửa đường Lý Thường Kiệt, Khu phố Minh Tân, Thị trấn Phan Rí Cửa, Huyện Tuy Phong, Tỉnh Bình Thuận",11.17236, 108.56719,Tier 3,CENTER,CH,TNN04,x,,,ON
TNN,BINH THUAN,Thành phố Phan Thiết,PNJ Coop Phan Thiết,10.92889, 108.10208,Tier 2,NEW CENTER,CH,TNN04,x,,,ON
TNN,BINH THUAN,Thành phố Phan Thiết,"TTKH 196 - 198 Tôn Đức Thắng, Phan Thiết",10.92889, 108.10208,Tier 2,NEW CENTER,CH,TNN04,x,x,x,ON
TNN,BINH THUAN,Thành phố Phan Thiết,"TTKH 40 Nguyễn Thị Minh Khai,P",10.92889, 108.10208,Tier 2,NEW CENTER,CH,TNN04,x,x,x,ON
TNN,BINH THUAN,Thị Xã Lagi,"TTKH 70A - 70B Lê Lợi, Lagi",10.65993, 107.77206,Tier 3,NEW CENTER,CH,TNN04,x,x,x,ON
TNN,DAK LAK,Huyện Krong Pac,"TTKH Giải Phóng, Phước An",15.48819, 108.30736,Tier 3,LOW COST,CH,TNN01,x,x,,ON
TNN,DAK LAK,Thành phố Buôn Mê Thuột,DC _CHI NHÁNH TÂY NGUYÊN,12.690738089060153, 108.06150602615003,,,DC,,,,,ON
TNN,DAK LAK,Thành phố Buôn Mê Thuột,GO BUÔN MA THUỘT,12.66747, 108.03775,Tier 1,NEW CENTER,CH,TNN01,x,x,,ON
TNN,DAK LAK,Thành phố Buôn Mê Thuột,PNJ Coop Buôn Ma Thuột,12.66747, 108.03775,Tier 1,NEW CENTER,CH,TNN01,x,x,,ON
TNN,DAK LAK,Thành phố Buôn Mê Thuột,PNJ Vincom Buôn Ma Thuột,12.681747, 108.044099,Tier 1,CENTER,CH,TNN01,,,,OFF
TNN,DAK LAK,Thành phố Buôn Mê Thuột,"TTKH 190-192 Nguyễn Tất Thành,",12.690675288665586, 108.06153821265718,Tier 1,CENTER,CH,TNN01,x,x,x,ON
TNN,DAK LAK,Thành phố Buôn Mê Thuột,"TTKH 239, Phan Chu Trinh, TP. Buôn Mê Thuột",12.690881581041308, 108.0504186287905,Tier 1,NEW CENTER,CH,TNN01,x,x,x,ON
TNN,DAK LAK,Thành phố Buôn Mê Thuột,"TTKH 32 Quang Trung, Buôn Ma Thuột",12.66747, 108.03775,Tier 1,NEW CENTER,CH,TNN01,x,x,x,ON
TNN,DAK LAK,Thành phố Buôn Mê Thuột,"TTKH 7-9 Y Wang,Buôn Ma Thuột",12.66747, 108.03775,Tier 1,CENTER,CH,TNN01,x,x,x,ON
TNN,DAK LAK,Thị xã Buôn Hồ,PNJ Coop Buôn Hồ,12.95, 108.3,Tier 3,CENTER,CH,TNN01,,,,OFF
TNN,DAK LAK,Thị xã Buôn Hồ,"TTKH 487 Hùng Vương, Buôn Hồ",12.95, 108.3,Tier 3,CENTER,CH,TNN01,x,x,x,ON
TNN,DAK NONG,Huyện Dak Mil,"TTKH 148-150 Nguyễn Tất Thành,",45.46427, 9.18951,Tier 3,CENTER,CH,TNN03,x,x,x,ON
TNN,DAK NONG,Thành phố Gia Nghĩa,PNJ Coop Đắk Nông,12.100152768867913, 107.91100379575842,Tier 2,CENTER,CH,TNN03,x,x,,ON
TNN,DAK NONG,Thành phố Gia Nghĩa,"TTKH 92-94 Huỳnh Thúc Kháng,Gi",12.00423, 107.69074,Tier 2,NEW CENTER,CH,TNN03,x,,x,ON
TNN,GIA LAI,Huyện Chu Se,"TTKH 748 Hùng Vương, Chư Sê",13.698680136124645, 108.07483219417608,Tier 3,CENTER,CH,TNN01,x,x,x,ON
TNN,GIA LAI,Thành phố Pleiku,"778 Phạm Văn Đồng, Pleiku",13.98333, 108.0,Tier 2,NEW CENTER,CH,TNN01,x,x,x,ON
TNN,GIA LAI,Thành phố Pleiku,PNJ Coop Pleiku,13.98333, 108.0,Tier 2,CENTER,CH,TNN01,x,x,,ON
TNN,GIA LAI,Thành phố Pleiku,"TTKH 122 Hoàng Văn Thụ,Pleiku",13.98333, 108.0,Tier 2,NEW CENTER,CH,TNN01,x,x,x,ON
TNN,GIA LAI,Thành phố Pleiku,"TTKH 504 Hùng Vương,Pleiku",13.98333, 108.0,Tier 2,CENTER,CH,TNN01,x,x,x,ON
TNN,GIA LAI,Thị xã An Khê,"TTKH 367 Quang Trung, P. An Phú, An Khê, Gia Lai",72.0, -40.0,Tier 3,CENTER,CH,TNN01,x,x,x,ON
TNN,KHANH HOA,Thành phố Cam Ranh,"TTKH 245 Phạm Văn Đồng,Cam Ran",11.92144, 109.15913,Tier 2,CENTER,CH,TNN02,x,x,x,ON
TNN,KHANH HOA,Thành phố Nha Trang,"A & B Central Square, TP.  Nha Trang",42.83528, 22.65167,Tier 2,CENTER,CH,TNN02,,,,OFF
TNN,KHANH HOA,Thành phố Nha Trang,Co.op Nha Trang,12.24507, 109.19432,Tier 2,CENTER,CH,TNN02,,,,OFF
TNN,KHANH HOA,Thành phố Nha Trang,PNJ Center Nha Trang,12.248057, 109.196001,Tier 2,CENTER,CH,TNN02,,,,OFF
TNN,KHANH HOA,Thành phố Nha Trang,PNJ GoldCoast Nha Trang,12.24507, 109.19432,Tier 1,CENTER,CH,TNN02,x,x,,ON
TNN,KHANH HOA,Thành phố Nha Trang,PNJ Lottemart Nha Trang,12.24507, 109.19432,Tier 1,NEW CENTER,CH,TNN02,x,x,,ON
TNN,KHANH HOA,Thành phố Nha Trang,PNJ Vincom Lê Thánh Tông Nha Trang,12.24507, 109.19432,Tier 1,CENTER,CH,TNN02,,,,OFF
TNN,KHANH HOA,Thành phố Nha Trang,PNJ Vincom Trần Phú Nha Trang,12.24507, 109.19432,Tier 1,CENTER,CH,TNN02,x,x,,ON
TNN,KHANH HOA,Thành phố Nha Trang,"TTKH 25-27 Lý Thánh Tôn,Nha Tr",12.24507, 109.19432,Tier 1,NEW CENTER,CH,TNN02,x,x,x,ON
TNN,KHANH HOA,Thành phố Nha Trang,"TTKH 443-445, Đường 2 tháng 4, Nha Trang",12.24507, 109.19432,Tier 1,NEW CENTER,CH,TNN02,x,x,x,ON
TNN,KHANH HOA,Thành phố Nha Trang,"TTKH 72 Thái Nguyên,Nha Trang",12.24507, 109.19432,Tier 1,CENTER,CH,TNN02,x,x,x,ON
TNN,KHANH HOA,Thành phố Nha Trang,Vinpearl Land Nha Trang,12.24507, 109.19432,Tier 2,CENTER,CH,TNN02,,,,OFF
TNN,KHANH HOA,Thị xã Ninh Hòa,PNJ Vincom+ Ninh Hoà,12.486543188604927, 109.13122728566773,Tier 3,CENTER,CH,TNN02,x,,,ON
TNN,KON TUM,Thành phố Kon Tum,Co.op Kon Tum,14.3497205, 108.0044011,Tier 3,CENTER,CH,TNN01,,,,OFF
TNN,KON TUM,Thành phố Kon Tum,PNJ Vincom Kon Tum,14.35451, 108.00759,Tier 2,CENTER,CH,TNN01,x,x,,ON
TNN,KON TUM,Thành phố Kon Tum,"TTKH 297 Trần Hưng Đạo,Kon Tum",14.35451, 108.00759,Tier 2,NEW CENTER,CH,TNN01,x,x,x,ON
TNN,LAM DONG,Huyện Di Linh,"TTKH 1044 Hùng Vuong, TT. Di Linh",11.590193230446012, 108.07972424332377,Tier 3,CENTER,CH,TNN03,x,x,x,ON
TNN,LAM DONG,Huyện Đức Trọng,"TTKH 121 Thống Nhất,Đức Trọng",11.62686, 108.3533,Tier 3,NEW CENTER,CH,TNN03,x,x,x,ON
TNN,LAM DONG,Huyện Đức Trọng,"TTKH 248, QL20, Đức Trọng",11.62686, 108.3533,Tier 3,NEW CENTER,CH,TNN03,,,,OFF
TNN,LAM DONG,Huyện Lâm Hà,"TTKH 736, Hùng Vương, Đình Văn, Huyện Lâm Hà",11.78624, 108.24282,Tier 3,NEW CENTER,CH,TNN03,x,x,x,ON
TNN,LAM DONG,Thành phố Bảo Lộc,PNJ Coop Bảo Lộc,11.54798, 107.80772,Tier 2,CENTER,CH,TNN03,x,,,ON
TNN,LAM DONG,Thành phố Bảo Lộc,PNJ Vincom Bảo Lộc,11.54798, 107.80772,Tier 2,CENTER,CH,TNN03,,,,OFF
TNN,LAM DONG,Thành phố Bảo Lộc,"TTKH 663-665a Trần Phú, Bảo Lộc",11.54798, 107.80772,Tier 2,NEW CENTER,CH,TNN03,x,x,x,ON
TNN,LAM DONG,Thành phố Đà Lạt,25- 27 Phan Bội Châu-Đà Lạt,11.94440803650854, 108.43790278935832,Tier 2,NEW CENTER,CH,TNN03,x,x,x,ON
TNN,LAM DONG,Thành phố Đà Lạt,PNJ BigC Đà Lạt,11.9388769, 108.4456196,Tier 2,NEW CENTER,CH,TNN03,x,x,x,ON
TNN,LAM DONG,Thành phố Đà Lạt,"TTKH 282 Phan Đình Phùng,Đà Lạt",11.950853141131232, 108.4343513117697,Tier 2,NEW CENTER,CH,TNN03,x,x,x,ON
TNN,LAM DONG,Thành phố Đà Lạt,"TTKH 71 Phan Chu Trinh, Đà Lạt",11.952109328275315, 108.46641040894406,Tier 2,NEW CENTER,CH,TNN03,x,x,x,ON
TNN,NINH THUAN,Thành phố Phan Rang - Tháp Chàm,PNJ Vincom Ninh Thuận,11.75, 108.83333,Tier 2,NEW CENTER,CH,TNN04,x,x,,ON
TNN,NINH THUAN,Thành phố Phan Rang - Tháp Chàm,"TTKH 261 Ngô Gia Tự, Phan Rang",11.56432, 108.98858,Tier 2,CENTER,CH,TNN04,x,x,x,ON
TNN,NINH THUAN,Thành phố Phan Rang - Tháp Chàm,"TTKH 560 Thống Nhất,Phan Rang",11.56432, 108.98858,Tier 2,NEW CENTER,CH,TNN04,x,x,x,ON
TNN,PHU YEN,Thành phố Tuy Hòa,PNJ Vincom Tuy Hoà,13.101343031701955, 109.30924341690746,Tier 2,CENTER,CH,TNN02,x,x,,ON
TNN,PHU YEN,Thành phố Tuy Hòa,"TTKH 199B Trần Hưng Đạo,Tuy Hò",13.09546, 109.32094,Tier 2,CENTER,CH,TNN02,x,x,x,ON
TNN,PHU YEN,Thành phố Tuy Hòa,"TTKH 248-250 Hùng Vương, Tuy Hòa",13.095567185788287, 109.31239977882143,Tier 2,NEW CENTER,CH,TNN02,x,x,x,ON
